{"type":"FeatureCollection","goldfinder":{"schema_version":1},"features":[{"type":"Feature","geometry":{"type":"Point","coordinates":[133.842,-23.81665]},"properties":{"id":"NT:G0060008","state":"NT","name":"Roe Crk - S Road Xng","flow":0.0,"flow_mld":0.0,"cat":"dry","obs":"2026-10-08T06:40"}},{"type":"Feature","geometry":{"type":"Point","coordinates":[133.88507,-23.69506]},"properties":{"id":"NT:G0060009","state":"NT","name":"Todd River - Anzac Oval","flow":0.0,"flow_mld":0.0,"cat":"dry","obs":"2026-10-08T08:24"}},{"type":"Feature","geometry":{"type":"Point","coordinates":[133.98382,-23.69109]},"properties":{"id":"NT:G0060017","state":"NT","name":"Emily Crk - U/S Undoolya Road","flow":0.017,"flow_mld":1.4,"cat":"low","obs":"2026-10-08T06:40"}},{"type":"Feature","geometry":{"type":"Point","coordinates":[133.91748,-23.76414]},"properties":{"id":"NT:G0060040","state":"NT","name":"Todd River - Amoonguna","flow":0.0,"flow_mld":0.0,"cat":"dry","obs":"2026-10-08T06:40"}},{"type":"Feature","geometry":{"type":"Point","coordinates":[134.08838,-23.84292]},"properties":{"id":"NT:G0060041","state":"NT","name":"Todd River - Rocky Hill","flow":0.0,"flow_mld":0.0,"cat":"dry","obs":"2026-10-08T06:40"}},{"type":"Feature","geometry":{"type":"Point","coordinates":[133.88244,-23.63412]},"properties":{"id":"NT:G0060046","state":"NT","name":"Todd River - Wigley Gorge","flow":0.013,"flow_mld":1.1,"cat":"low","obs":"2026-10-08T07:00"}},{"type":"Feature","geometry":{"type":"Point","coordinates":[133.86485,-23.72842]},"properties":{"id":"NT:G0060126","state":"NT","name":"Todd River - Heavitree Gap","flow":0.0,"flow_mld":0.0,"cat":"dry","obs":"2026-10-08T06:40"}},{"type":"Feature","geometry":{"type":"Point","coordinates":[132.2569,-14.46222]},"properties":{"id":"NT:G8140001","state":"NT","name":"Katherine River - Railway Bridge","flow":1.922,"flow_mld":166.0,"cat":"medium","obs":"2026-10-08T06:45"}},{"type":"Feature","geometry":{"type":"Point","coordinates":[130.71134,-13.76616]},"properties":{"id":"NT:G8140003","state":"NT","name":"Daly River - Police Station","flow":44.724,"flow_mld":3864.2,"cat":"high","obs":"2026-10-08T06:45"}},{"type":"Feature","geometry":{"type":"Point","coordinates":[131.97735,-14.07088]},"properties":{"id":"NT:G8140008","state":"NT","name":"Fergusson River - Railway Bridge","flow":0.0,"flow_mld":0.0,"cat":"dry","obs":"2026-10-08T06:40"}},{"type":"Feature","geometry":{"type":"Point","coordinates":[130.73523,-13.82973]},"properties":{"id":"NT:G8140040","state":"NT","name":"Daly River - Mount Nancar","flow":84.117,"flow_mld":7267.7,"cat":"high","obs":"2026-10-08T06:45"}},{"type":"Feature","geometry":{"type":"Point","coordinates":[130.80143,-13.90412]},"properties":{"id":"NT:G8140041","state":"NT","name":"Daly River - Gourley","flow":51.622,"flow_mld":4460.1,"cat":"high","obs":"2026-10-08T06:00"}},{"type":"Feature","geometry":{"type":"Point","coordinates":[131.05228,-13.85419]},"properties":{"id":"NT:G8140042","state":"NT","name":"Daly River - 2km D/S Beeboom Xng","flow":54.322,"flow_mld":4693.4,"cat":"high","obs":"2026-10-08T03:00"}},{"type":"Feature","geometry":{"type":"Point","coordinates":[131.94412,-14.03187]},"properties":{"id":"NT:G8140060","state":"NT","name":"Cullen River - Stuart Hwy Railway Bridge","flow":NaN,"flow_mld":NaN,"cat":"high","obs":"2026-10-08T06:40"}},{"type":"Feature","geometry":{"type":"Point","coordinates":[131.33998,-13.7971]},"properties":{"id":"NT:G8140063","state":"NT","name":"Douglas River - D/S Old Douglas Homestead","flow":1.175,"flow_mld":101.5,"cat":"medium","obs":"2026-10-08T07:00"}},{"type":"Feature","geometry":{"type":"Point","coordinates":[131.57405,-14.36537]},"properties":{"id":"NT:G8140067","state":"NT","name":"Daly River - U/S Dorisvale Xng","flow":24.762,"flow_mld":2139.5,"cat":"high","obs":"2026-10-08T06:00"}},{"type":"Feature","geometry":{"type":"Point","coordinates":[132.05813,-14.70234]},"properties":{"id":"NT:G8140068","state":"NT","name":"King River - D/S Victoria Hwy","flow":30.589,"flow_mld":2642.9,"cat":"high","obs":"2026-10-08T06:00"}},{"type":"Feature","geometry":{"type":"Point","coordinates":[132.58833,-14.62705]},"properties":{"id":"NT:G8140086","state":"NT","name":"King River - D/S Stuart Hwy","flow":0.857,"flow_mld":74.0,"cat":"medium","obs":"2026-10-08T06:00"}},{"type":"Feature","geometry":{"type":"Point","coordinates":[131.34244,-14.15223]},"properties":{"id":"NT:G8140098","state":"NT","name":"Daly River - Theyona Station","flow":66.455,"flow_mld":5741.8,"cat":"high","obs":"2026-10-08T03:00"}},{"type":"Feature","geometry":{"type":"Point","coordinates":[132.07365,-14.1681]},"properties":{"id":"NT:G8140152","state":"NT","name":"Edith River - U/S Stuart Hwy","flow":0.032,"flow_mld":2.8,"cat":"low","obs":"2026-10-08T06:40"}},{"type":"Feature","geometry":{"type":"Point","coordinates":[131.87496,-14.28346]},"properties":{"id":"NT:G8140157","state":"NT","name":"Fergusson River - U/S Bondi Crk","flow":0.493,"flow_mld":42.6,"cat":"low","obs":"2026-10-08T06:40"}},{"type":"Feature","geometry":{"type":"Point","coordinates":[132.39941,-14.28352]},"properties":{"id":"NT:G8140159","state":"NT","name":"Seventeen Mile Crk - Waterfall View","flow":1.866,"flow_mld":161.2,"cat":"medium","obs":"2026-10-08T06:45"}},{"type":"Feature","geometry":{"type":"Point","coordinates":[131.10229,-13.7381]},"properties":{"id":"NT:G8140161","state":"NT","name":"Green Ant Crk - Tipperary","flow":0.23,"flow_mld":19.8,"cat":"low","obs":"2026-10-08T07:40"}},{"type":"Feature","geometry":{"type":"Point","coordinates":[131.67458,-14.68817]},"properties":{"id":"NT:G8140205","state":"NT","name":"Flora River - U/S Stoney Crk","flow":4.217,"flow_mld":364.4,"cat":"medium","obs":"2026-10-08T06:00"}},{"type":"Feature","geometry":{"type":"Point","coordinates":[132.77559,-13.97367]},"properties":{"id":"NT:G8140219","state":"NT","name":"Katherine River - D/S Birdie Crk Confluence","flow":0.058,"flow_mld":5.0,"cat":"low","obs":"2026-10-08T00:30"}},{"type":"Feature","geometry":{"type":"Point","coordinates":[131.15903,-13.83749]},"properties":{"id":"NT:G8140325","state":"NT","name":"Douglas River - Tipperary Xng","flow":2.746,"flow_mld":237.2,"cat":"medium","obs":"2026-10-08T07:00"}},{"type":"Feature","geometry":{"type":"Point","coordinates":[132.28645,-14.42485]},"properties":{"id":"NT:G8140535","state":"NT","name":"Katherine River - Ironwood Station","flow":0.699,"flow_mld":60.4,"cat":"medium","obs":"2026-10-08T06:45"}},{"type":"Feature","geometry":{"type":"Point","coordinates":[132.08273,-14.56773]},"properties":{"id":"NT:G8140536","state":"NT","name":"Katherine River - Wilden Station","flow":4.334,"flow_mld":374.4,"cat":"medium","obs":"2026-10-08T06:45"}},{"type":"Feature","geometry":{"type":"Point","coordinates":[131.23313,-13.81447]},"properties":{"id":"NT:G8140538","state":"NT","name":"Douglas River - Tippera Waterhole","flow":3.105,"flow_mld":268.2,"cat":"medium","obs":"2026-10-08T07:00"}},{"type":"Feature","geometry":{"type":"Point","coordinates":[130.95125,-13.0243]},"properties":{"id":"NT:G8150010","state":"NT","name":"Finniss River - Batchelor Dam Site","flow":0.085,"flow_mld":7.3,"cat":"low","obs":"2026-10-08T07:30"}},{"type":"Feature","geometry":{"type":"Point","coordinates":[130.97285,-12.8303]},"properties":{"id":"NT:G8150011","state":"NT","name":"Darwin River Dam - Intake Tower","flow":0.0,"flow_mld":0.0,"cat":"dry","obs":"2026-10-08T06:00"}},{"type":"Feature","geometry":{"type":"Point","coordinates":[131.07381,-12.60585]},"properties":{"id":"NT:G8150018","state":"NT","name":"Elizabeth River - Stuart Hwy","flow":0.0,"flow_mld":0.0,"cat":"dry","obs":"2026-10-08T06:40"}},{"type":"Feature","geometry":{"type":"Point","coordinates":[131.03685,-12.49652]},"properties":{"id":"NT:G8150022","state":"NT","name":"Wadhams Lagoon - Whitewood Road","flow":0.0,"flow_mld":0.0,"cat":"dry","obs":"2026-10-08T06:40"}},{"type":"Feature","geometry":{"type":"Point","coordinates":[130.9957,-12.70091]},"properties":{"id":"NT:G8150027","state":"NT","name":"Berry Creek - Marsh Fly Weir","flow":0.865,"flow_mld":74.8,"cat":"medium","obs":"2026-10-08T06:40"}},{"type":"Feature","geometry":{"type":"Point","coordinates":[131.00256,-12.70879]},"properties":{"id":"NT:G8150028","state":"NT","name":"Berry Crk - U/S Cox Peninsula Road","flow":0.071,"flow_mld":6.1,"cat":"low","obs":"2026-10-08T06:40"}},{"type":"Feature","geometry":{"type":"Point","coordinates":[130.94498,-12.77355]},"properties":{"id":"NT:G8150098","state":"NT","name":"Blackmore River - Tumbling Waters","flow":0.0,"flow_mld":0.0,"cat":"dry","obs":"2026-10-08T07:00"}},{"type":"Feature","geometry":{"type":"Point","coordinates":[130.8701,-12.39283]},"properties":{"id":"NT:G8150127","state":"NT","name":"Rapid Crk - D/S McMillans Road","flow":0.013,"flow_mld":1.2,"cat":"low","obs":"2026-10-08T07:00"}},{"type":"Feature","geometry":{"type":"Point","coordinates":[131.08387,-12.4625]},"properties":{"id":"NT:G8150179","state":"NT","name":"Howard River - Koolpinyah Stockyard Iron Bridge","flow":0.096,"flow_mld":8.3,"cat":"low","obs":"2026-10-08T06:45"}},{"type":"Feature","geometry":{"type":"Point","coordinates":[130.76241,-12.9695]},"properties":{"id":"NT:G8150180","state":"NT","name":"Finniss River - Gitchams Xng","flow":0.869,"flow_mld":75.1,"cat":"medium","obs":"2026-10-08T06:20"}},{"type":"Feature","geometry":{"type":"Point","coordinates":[130.87843,-12.39608]},"properties":{"id":"NT:G8150231","state":"NT","name":"Moil Urban Drain Opposite Airport Hotel","flow":0.05,"flow_mld":4.3,"cat":"low","obs":"2026-10-08T07:40"}},{"type":"Feature","geometry":{"type":"Point","coordinates":[131.10864,-13.24147]},"properties":{"id":"NT:G8170002","state":"NT","name":"Adelaide River - Railway Bridge","flow":0.197,"flow_mld":17.0,"cat":"low","obs":"2026-10-08T06:40"}},{"type":"Feature","geometry":{"type":"Point","coordinates":[131.08489,-13.41713]},"properties":{"id":"NT:G8170008","state":"NT","name":"Adelaide River - D/S Daly Road","flow":0.118,"flow_mld":10.2,"cat":"low","obs":"2026-10-08T03:00"}},{"type":"Feature","geometry":{"type":"Point","coordinates":[131.28032,-12.91357]},"properties":{"id":"NT:G8170032","state":"NT","name":"Margaret River - U/S Marrakai Xng","flow":0.0,"flow_mld":0.0,"cat":"dry","obs":"2026-10-08T06:45"}},{"type":"Feature","geometry":{"type":"Point","coordinates":[131.13083,-12.87832]},"properties":{"id":"NT:G8170075","state":"NT","name":"Manton River - U/S Manton Dam","flow":0.011,"flow_mld":1.0,"cat":"low","obs":"2026-10-08T06:45"}},{"type":"Feature","geometry":{"type":"Point","coordinates":[131.23371,-13.09001]},"properties":{"id":"NT:G8170084","state":"NT","name":"Adelaide River - Tortilla Flats","flow":0.197,"flow_mld":17.0,"cat":"low","obs":"2026-10-08T06:45"}},{"type":"Feature","geometry":{"type":"Point","coordinates":[131.26581,-12.92839]},"properties":{"id":"NT:G8170105","state":"NT","name":"Adelaide River - Approx 130m upstream Marrakai Xing","flow":0.211,"flow_mld":18.2,"cat":"low","obs":"2026-10-08T06:45"}},{"type":"Feature","geometry":{"type":"Point","coordinates":[138.85705,-35.22633]},"properties":{"id":"SA:A4260503","state":"SA","name":"Angas River at Angas Weir","flow":0.038,"flow_mld":3.3,"cat":"low","obs":"2026-10-08T08:10"}},{"type":"Feature","geometry":{"type":"Point","coordinates":[138.67387,-35.32303]},"properties":{"id":"SA:A4260504","state":"SA","name":"Finniss River 4km East of Yundi","flow":0.154,"flow_mld":13.3,"cat":"low","obs":"2026-10-08T08:15"}},{"type":"Feature","geometry":{"type":"Point","coordinates":[138.69297,-35.44452]},"properties":{"id":"SA:A4260530","state":"SA","name":"Currency Creek near Higgins","flow":0.14,"flow_mld":12.1,"cat":"low","obs":"2026-10-08T08:15"}},{"type":"Feature","geometry":{"type":"Point","coordinates":[139.0063,-35.2087]},"properties":{"id":"SA:A4260533","state":"SA","name":"Bremer River near Hartley","flow":0.182,"flow_mld":15.7,"cat":"low","obs":"2026-10-08T08:00"}},{"type":"Feature","geometry":{"type":"Point","coordinates":[138.91795,-35.08609]},"properties":{"id":"SA:A4260557","state":"SA","name":"Mount Barker Creek downstream Mount Barker","flow":0.085,"flow_mld":7.3,"cat":"low","obs":"2026-10-08T08:10"}},{"type":"Feature","geometry":{"type":"Point","coordinates":[138.9503,-35.0403]},"properties":{"id":"SA:A4260558","state":"SA","name":"Dawesley Creek at Dawesley","flow":0.021,"flow_mld":1.8,"cat":"low","obs":"2026-10-08T08:00"}},{"type":"Feature","geometry":{"type":"Point","coordinates":[139.2317,-34.6741]},"properties":{"id":"SA:A4260605","state":"SA","name":"Marne River at Marne Gorge","flow":0.023,"flow_mld":2.0,"cat":"low","obs":"2026-10-08T08:10"}},{"type":"Feature","geometry":{"type":"Point","coordinates":[139.02345,-35.13857]},"properties":{"id":"SA:A4260679","state":"SA","name":"Mount Barker Creek upstream Bremer River Confluence","flow":0.166,"flow_mld":14.4,"cat":"low","obs":"2026-10-08T08:05"}},{"type":"Feature","geometry":{"type":"Point","coordinates":[139.0285,-35.1338]},"properties":{"id":"SA:A4260688","state":"SA","name":"Bremer River upstream Mount Barker Confluence","flow":0.007,"flow_mld":0.6,"cat":"low","obs":"2026-10-08T08:10"}},{"type":"Feature","geometry":{"type":"Point","coordinates":[138.9177,-35.2797]},"properties":{"id":"SA:A4261101","state":"SA","name":"Angas River downstream Willyaroo","flow":0.122,"flow_mld":10.5,"cat":"low","obs":"2026-10-08T08:00"}},{"type":"Feature","geometry":{"type":"Point","coordinates":[139.0388,-35.2943]},"properties":{"id":"SA:A4261102","state":"SA","name":"Bremer River upstream Langhorne Creek Road Bridge","flow":0.125,"flow_mld":10.8,"cat":"low","obs":"2026-10-08T08:05"}},{"type":"Feature","geometry":{"type":"Point","coordinates":[138.9135,-35.1877]},"properties":{"id":"SA:A4261139","state":"SA","name":"Rodwell Creek Off Scrubby Hill Road Highland Valley","flow":0.316,"flow_mld":27.3,"cat":"low","obs":"2026-10-08T08:15"}},{"type":"Feature","geometry":{"type":"Point","coordinates":[138.8156,-35.1532]},"properties":{"id":"SA:A4261144","state":"SA","name":"Quarry Road Ck us Macclesfield Flaxley/Quarry Rds","flow":0.332,"flow_mld":28.7,"cat":"low","obs":"2026-10-08T08:15"}},{"type":"Feature","geometry":{"type":"Point","coordinates":[139.08334,-33.84185]},"properties":{"id":"SA:A4261148","state":"SA","name":"Burra Creek at Worlds End (Low Flow)","flow":0.007,"flow_mld":0.6,"cat":"low","obs":"2026-10-08T08:15"}},{"type":"Feature","geometry":{"type":"Point","coordinates":[139.20487,-34.92608]},"properties":{"id":"SA:A4261172","state":"SA","name":"Reedy Creek us waterfall (near Reedy Creek Swamp)","flow":0.053,"flow_mld":4.6,"cat":"low","obs":"2026-10-08T08:15"}},{"type":"Feature","geometry":{"type":"Point","coordinates":[138.99018,-35.23276]},"properties":{"id":"SA:A4261173","state":"SA","name":"Bremer River us Wandstead Road","flow":0.404,"flow_mld":34.9,"cat":"low","obs":"2026-10-08T08:00"}},{"type":"Feature","geometry":{"type":"Point","coordinates":[138.81406,-35.38981]},"properties":{"id":"SA:A4261208","state":"SA","name":"Finniss R DS Cockle Train Railway Crossing","flow":0.194,"flow_mld":16.8,"cat":"low","obs":"2026-10-08T08:15"}},{"type":"Feature","geometry":{"type":"Point","coordinates":[139.05099,-35.36738]},"properties":{"id":"SA:A4261219","state":"SA","name":"Bremer River US Ballandown Road","flow":NaN,"flow_mld":NaN,"cat":"high","obs":"2026-10-08T08:10"}},{"type":"Feature","geometry":{"type":"Point","coordinates":[139.01013,-34.94981]},"properties":{"id":"SA:A4261222","state":"SA","name":"Bremer River at Harrogate (opposite tennis court)","flow":0.009,"flow_mld":0.8,"cat":"low","obs":"2026-10-08T08:10"}},{"type":"Feature","geometry":{"type":"Point","coordinates":[138.65125,-35.37192]},"properties":{"id":"SA:A4261226","state":"SA","name":"Tookayerta Creek at Cleland Gully Rd (pool)","flow":0.034,"flow_mld":2.9,"cat":"low","obs":"2026-10-08T05:20"}},{"type":"Feature","geometry":{"type":"Point","coordinates":[138.65124,-35.37188]},"properties":{"id":"SA:A4261227","state":"SA","name":"Tookayerta Creek at Cleland Gully Rd (Culvert 1)","flow":NaN,"flow_mld":NaN,"cat":"high","obs":"2026-10-08T05:20"}},{"type":"Feature","geometry":{"type":"Point","coordinates":[138.65216,-35.42037]},"properties":{"id":"SA:A4261229","state":"SA","name":"Currency Creek at Kilchoan Off Sneyd Road (channel)","flow":0.057,"flow_mld":4.9,"cat":"low","obs":"2026-10-08T08:15"}},{"type":"Feature","geometry":{"type":"Point","coordinates":[139.07057,-34.66903]},"properties":{"id":"SA:A4261233","state":"SA","name":"Marne River at Avon Brae Off Vigars Road (pool)","flow":0.012,"flow_mld":1.0,"cat":"low","obs":"2026-10-08T08:20"}},{"type":"Feature","geometry":{"type":"Point","coordinates":[138.9135,-35.18786]},"properties":{"id":"SA:A4261234","state":"SA","name":"Rodwell Creek Off Scrubby Hill Road (channel)","flow":0.0,"flow_mld":0.0,"cat":"dry","obs":"2026-10-08T08:15"}},{"type":"Feature","geometry":{"type":"Point","coordinates":[138.74032,-35.26052]},"properties":{"id":"SA:A4261269","state":"SA","name":"Ti Tree Creek Near Prospect Hill","flow":0.006,"flow_mld":0.5,"cat":"low","obs":"2026-10-08T08:15"}},{"type":"Feature","geometry":{"type":"Point","coordinates":[138.81555,-35.15347]},"properties":{"id":"SA:A4261407","state":"SA","name":"Angas River at Quarry Road","flow":0.02,"flow_mld":1.7,"cat":"low","obs":"2026-10-08T08:15"}},{"type":"Feature","geometry":{"type":"Point","coordinates":[138.75015,-35.39041]},"properties":{"id":"SA:A4261811","state":"SA","name":"Tookayerta Creek 500m downstream Deep Creek Road","flow":0.338,"flow_mld":29.2,"cat":"low","obs":"2026-10-08T08:15"}},{"type":"Feature","geometry":{"type":"Point","coordinates":[138.5799,-35.5442]},"properties":{"id":"SA:A5010503","state":"SA","name":"Inman River us Victor Harbor Sewage Treatment Works","flow":0.908,"flow_mld":78.5,"cat":"medium","obs":"2026-10-08T08:15"}},{"type":"Feature","geometry":{"type":"Point","coordinates":[138.31,-35.4827]},"properties":{"id":"SA:A5011006","state":"SA","name":"Yankalilla River downstream Blackfellows Creek","flow":0.169,"flow_mld":14.6,"cat":"low","obs":"2026-10-08T08:15"}},{"type":"Feature","geometry":{"type":"Point","coordinates":[138.622,-35.5199]},"properties":{"id":"SA:A5011027","state":"SA","name":"Hindmarsh River upstream estuary (Welch Road)","flow":0.302,"flow_mld":26.1,"cat":"low","obs":"2026-10-08T08:00"}},{"type":"Feature","geometry":{"type":"Point","coordinates":[138.3474,-35.4578]},"properties":{"id":"SA:A5011029","state":"SA","name":"Bungala River upstream Estuary","flow":0.028,"flow_mld":2.4,"cat":"low","obs":"2026-10-08T08:00"}},{"type":"Feature","geometry":{"type":"Point","coordinates":[138.38516,-35.63637]},"properties":{"id":"SA:A5011030","state":"SA","name":"Callawonga Creek upstream mouth (Tunk Head Road)","flow":0.244,"flow_mld":21.1,"cat":"low","obs":"2026-10-08T08:20"}},{"type":"Feature","geometry":{"type":"Point","coordinates":[138.51378,-35.4966]},"properties":{"id":"SA:A5011036","state":"SA","name":"Inman River at Mount Alma Road","flow":0.146,"flow_mld":12.6,"cat":"low","obs":"2026-10-08T08:00"}},{"type":"Feature","geometry":{"type":"Point","coordinates":[138.36245,-35.43896]},"properties":{"id":"SA:A5011042","state":"SA","name":"Carrickalinga Creek downstream Yacca Road bridge","flow":NaN,"flow_mld":NaN,"cat":"high","obs":"2026-10-08T08:15"}},{"type":"Feature","geometry":{"type":"Point","coordinates":[138.4786,-35.38]},"properties":{"id":"SA:A5020502","state":"SA","name":"Myponga River upstream Dam And Road Bridge","flow":0.201,"flow_mld":17.4,"cat":"low","obs":"2026-10-08T07:50"}},{"type":"Feature","geometry":{"type":"Point","coordinates":[138.635,-35.1114]},"properties":{"id":"SA:A5030500","state":"SA","name":"Onkaparinga River at Clarendon Weir","flow":0.0,"flow_mld":0.0,"cat":"dry","obs":"2026-10-08T07:50"}},{"type":"Feature","geometry":{"type":"Point","coordinates":[138.67436,-35.09976]},"properties":{"id":"SA:A5030502","state":"SA","name":"Scott Creek at Scott Bottom","flow":0.032,"flow_mld":2.7,"cat":"low","obs":"2026-10-08T08:10"}},{"type":"Feature","geometry":{"type":"Point","coordinates":[138.6074,-35.1393]},"properties":{"id":"SA:A5030503","state":"SA","name":"Baker Gully 4.5km WNW Kangarilla","flow":0.027,"flow_mld":2.3,"cat":"low","obs":"2026-10-08T08:10"}},{"type":"Feature","geometry":{"type":"Point","coordinates":[138.8215,-34.9367]},"properties":{"id":"SA:A5030507","state":"SA","name":"Lenswood Creek at Lenswood","flow":0.043,"flow_mld":3.7,"cat":"low","obs":"2026-10-08T08:00"}},{"type":"Feature","geometry":{"type":"Point","coordinates":[138.734,-34.9749]},"properties":{"id":"SA:A5030526","state":"SA","name":"Cox Creek at Uraidla","flow":0.024,"flow_mld":2.0,"cat":"low","obs":"2026-10-08T08:10"}},{"type":"Feature","geometry":{"type":"Point","coordinates":[138.70472,-35.12745]},"properties":{"id":"SA:A5030529","state":"SA","name":"Burnt Out Creek upstream Mount Bold Reservoir","flow":0.0,"flow_mld":0.0,"cat":"dry","obs":"2026-10-08T08:10"}},{"type":"Feature","geometry":{"type":"Point","coordinates":[138.79359,-35.01994]},"properties":{"id":"SA:A5030537","state":"SA","name":"Hahndorf Creek downstream Sewage Treatment Works","flow":0.022,"flow_mld":1.9,"cat":"low","obs":"2026-10-08T08:10"}},{"type":"Feature","geometry":{"type":"Point","coordinates":[138.52639,-35.20592]},"properties":{"id":"SA:A5030543","state":"SA","name":"Pedler Creek at Stump Hill Road","flow":0.0,"flow_mld":0.0,"cat":"dry","obs":"2026-10-08T08:10"}},{"type":"Feature","geometry":{"type":"Point","coordinates":[138.4794,-35.1259]},"properties":{"id":"SA:A5030547","state":"SA","name":"Christie Creek downstream Galloway Road","flow":0.015,"flow_mld":1.3,"cat":"low","obs":"2026-10-08T08:10"}},{"type":"Feature","geometry":{"type":"Point","coordinates":[138.7912,-35.0223]},"properties":{"id":"SA:A5031001","state":"SA","name":"Onkaparinga River upstream Hahndorf Dissipater","flow":0.262,"flow_mld":22.6,"cat":"low","obs":"2026-10-08T08:10"}},{"type":"Feature","geometry":{"type":"Point","coordinates":[138.6309,-35.1127]},"properties":{"id":"SA:A5031004","state":"SA","name":"Onkaparinga River 300m downstream Clarendon Weir","flow":0.183,"flow_mld":15.8,"cat":"low","obs":"2026-10-08T08:10"}},{"type":"Feature","geometry":{"type":"Point","coordinates":[138.51468,-35.1751]},"properties":{"id":"SA:A5031005","state":"SA","name":"Onkaparinga R 1.1km upstream Estuary Ford Old Noarlunga","flow":0.431,"flow_mld":37.2,"cat":"low","obs":"2026-10-08T08:10"}},{"type":"Feature","geometry":{"type":"Point","coordinates":[138.4953,-35.0879]},"properties":{"id":"SA:A5031010","state":"SA","name":"Field River upstream Mouth (ds Lonsdale Road)","flow":0.037,"flow_mld":3.2,"cat":"low","obs":"2026-10-08T08:10"}},{"type":"Feature","geometry":{"type":"Point","coordinates":[138.88699,-34.96116]},"properties":{"id":"SA:A5031021","state":"SA","name":"Inverbrackie Creek US South Ridge Road","flow":0.008,"flow_mld":0.7,"cat":"low","obs":"2026-10-08T08:20"}},{"type":"Feature","geometry":{"type":"Point","coordinates":[138.8523,-34.8216]},"properties":{"id":"SA:A5040500","state":"SA","name":"River Torrens at Gumeracha Weir","flow":0.0,"flow_mld":0.0,"cat":"dry","obs":"2026-10-08T07:30"}},{"type":"Feature","geometry":{"type":"Point","coordinates":[138.7313,-34.8559]},"properties":{"id":"SA:A5040501","state":"SA","name":"River Torrens at Gorge Weir","flow":0.0,"flow_mld":0.0,"cat":"dry","obs":"2026-10-08T07:05"}},{"type":"Feature","geometry":{"type":"Point","coordinates":[138.6994,-34.7547]},"properties":{"id":"SA:A5040503","state":"SA","name":"Little Para River upstream Fault","flow":0.0,"flow_mld":0.0,"cat":"dry","obs":"2026-10-08T08:10"}},{"type":"Feature","geometry":{"type":"Point","coordinates":[138.8327,-34.8189]},"properties":{"id":"SA:A5040508","state":"SA","name":"Millbrook Reservoir Intake Channel us Millbrook Res","flow":0.024,"flow_mld":2.1,"cat":"low","obs":"2026-10-08T08:00"}},{"type":"Feature","geometry":{"type":"Point","coordinates":[139.0286,-34.7863]},"properties":{"id":"SA:A5040512","state":"SA","name":"Torrens River at Mount Pleasant","flow":0.008,"flow_mld":0.6,"cat":"low","obs":"2026-10-08T08:15"}},{"type":"Feature","geometry":{"type":"Point","coordinates":[138.6813,-34.9703]},"properties":{"id":"SA:A5040517","state":"SA","name":"First Creek at Waterfall Gully","flow":0.01,"flow_mld":0.8,"cat":"low","obs":"2026-10-08T08:10"}},{"type":"Feature","geometry":{"type":"Point","coordinates":[138.8345,-34.8108]},"properties":{"id":"SA:A5040525","state":"SA","name":"Kersbrook Ck upstream Millbrook Reservoir","flow":0.009,"flow_mld":0.8,"cat":"low","obs":"2026-10-08T08:00"}},{"type":"Feature","geometry":{"type":"Point","coordinates":[138.5486,-34.9135]},"properties":{"id":"SA:A5040529","state":"SA","name":"River Torrens at Holbrooks Road","flow":0.098,"flow_mld":8.5,"cat":"low","obs":"2026-10-08T08:40"}},{"type":"Feature","geometry":{"type":"Point","coordinates":[138.53298,-34.97418]},"properties":{"id":"SA:A5040549","state":"SA","name":"Sturt River downstream Anzac Highway","flow":0.005,"flow_mld":0.4,"cat":"low","obs":"2026-10-08T08:10"}},{"type":"Feature","geometry":{"type":"Point","coordinates":[138.6063,-34.9154]},"properties":{"id":"SA:A5040578","state":"SA","name":"First Creek downstream Botanic Gardens","flow":0.0,"flow_mld":0.0,"cat":"dry","obs":"2026-10-08T08:10"}},{"type":"Feature","geometry":{"type":"Point","coordinates":[138.5357,-34.955]},"properties":{"id":"SA:A5040583","state":"SA","name":"Brown Hill Creek at Adelaide Airport (Morphett Road)","flow":0.0,"flow_mld":0.0,"cat":"dry","obs":"2026-10-08T08:10"}},{"type":"Feature","geometry":{"type":"Point","coordinates":[138.62078,-34.98037]},"properties":{"id":"SA:A5040901","state":"SA","name":"Brown Hill Creek at Scotch College","flow":0.023,"flow_mld":2.0,"cat":"low","obs":"2026-10-08T08:10"}},{"type":"Feature","geometry":{"type":"Point","coordinates":[138.81973,-34.84399]},"properties":{"id":"SA:A5041003","state":"SA","name":"River Torrens downstream Hollands Creek","flow":0.095,"flow_mld":8.3,"cat":"low","obs":"2026-10-08T08:15"}},{"type":"Feature","geometry":{"type":"Point","coordinates":[138.4983,-34.8988]},"properties":{"id":"SA:A5041016","state":"SA","name":"Kirkcaldy Wetland at Nash Street East Grange","flow":0.002,"flow_mld":0.2,"cat":"dry","obs":"2026-10-08T08:10"}},{"type":"Feature","geometry":{"type":"Point","coordinates":[146.19193,-41.1662]},"properties":{"id":"TAS:1088-1","state":"TAS","name":"BUTTONS CREEK US BASS HIGHWAY","flow":0.098,"flow_mld":8.5,"cat":"low","obs":"2026-10-08T09:00"}},{"type":"Feature","geometry":{"type":"Point","coordinates":[147.467,-41.3186]},"properties":{"id":"TAS:11374-1","state":"TAS","name":"ST PATRICKS RIVER US EAST DIDDLEUM ROAD","flow":1.618,"flow_mld":139.8,"cat":"medium","obs":"2026-10-08T08:00"}},{"type":"Feature","geometry":{"type":"Point","coordinates":[147.20494,-41.29178]},"properties":{"id":"TAS:116-1","state":"TAS","name":"PIPERS RIVER AT UNDERWOOD","flow":0.103,"flow_mld":8.9,"cat":"low","obs":"2026-10-08T09:00"}},{"type":"Feature","geometry":{"type":"Point","coordinates":[147.36102,-41.4929]},"properties":{"id":"TAS:1304-1","state":"TAS","name":"NORTH ESK RIVER DS TASWATER WEIR","flow":1.359,"flow_mld":117.4,"cat":"medium","obs":"2026-10-08T08:00"}},{"type":"Feature","geometry":{"type":"Point","coordinates":[147.70311,-41.22233]},"properties":{"id":"TAS:1309-1","state":"TAS","name":"LEGERWOOD RIVULET DS RINGAROOMA ROAD","flow":0.1,"flow_mld":8.7,"cat":"low","obs":"2026-10-08T09:00"}},{"type":"Feature","geometry":{"type":"Point","coordinates":[147.70597,-41.27103]},"properties":{"id":"TAS:1319-1","state":"TAS","name":"RINGAROOMA RIVER AT COTTONS BRIDGE","flow":1.549,"flow_mld":133.8,"cat":"medium","obs":"2026-10-08T08:00"}},{"type":"Feature","geometry":{"type":"Point","coordinates":[147.73509,-41.17256]},"properties":{"id":"TAS:1335-1","state":"TAS","name":"RINGAROOMA RIVER US BRANXHOLM WATER SUPPLY","flow":2.564,"flow_mld":221.6,"cat":"medium","obs":"2026-10-08T09:00"}},{"type":"Feature","geometry":{"type":"Point","coordinates":[146.02991,-41.10597]},"properties":{"id":"TAS:14206-1","state":"TAS","name":"SULPHUR CREEK 1.5 KM US MOUTH","flow":0.275,"flow_mld":23.8,"cat":"low","obs":"2026-10-08T09:00"}},{"type":"Feature","geometry":{"type":"Point","coordinates":[146.09059,-41.25097]},"properties":{"id":"TAS:14207-1","state":"TAS","name":"LEVEN RIVER AT BANNONS BRIDGE","flow":7.153,"flow_mld":618.0,"cat":"medium","obs":"2026-10-08T09:00"}},{"type":"Feature","geometry":{"type":"Point","coordinates":[145.83739,-41.05772]},"properties":{"id":"TAS:14212-1","state":"TAS","name":"CAM RIVER US SOMERSET WATER SUPPLY","flow":1.792,"flow_mld":154.9,"cat":"medium","obs":"2026-10-08T09:00"}},{"type":"Feature","geometry":{"type":"Point","coordinates":[145.6096,-40.96782]},"properties":{"id":"TAS:14215-1","state":"TAS","name":"FLOWERDALE RIVER AT MOORLEAH","flow":1.931,"flow_mld":166.8,"cat":"medium","obs":"2026-10-08T09:00"}},{"type":"Feature","geometry":{"type":"Point","coordinates":[145.76686,-41.01105]},"properties":{"id":"TAS:14220-1","state":"TAS","name":"SEABROOK CREEK US BASS HIGHWAY","flow":0.379,"flow_mld":32.8,"cat":"low","obs":"2026-10-08T09:00"}},{"type":"Feature","geometry":{"type":"Point","coordinates":[146.21963,-41.16135]},"properties":{"id":"TAS:14237-1","state":"TAS","name":"CLAYTONS RIVULET US BASS HIGHWAY","flow":0.364,"flow_mld":31.4,"cat":"low","obs":"2026-10-08T09:00"}},{"type":"Feature","geometry":{"type":"Point","coordinates":[146.14236,-41.21152]},"properties":{"id":"TAS:14253-1","state":"TAS","name":"GAWLER RIVER AT CRADLE COAST WATER SUPPLY","flow":0.301,"flow_mld":26.0,"cat":"low","obs":"2026-10-08T09:00"}},{"type":"Feature","geometry":{"type":"Point","coordinates":[145.96352,-41.06886]},"properties":{"id":"TAS:14261-1","state":"TAS","name":"CHASM CREEK US BASS HIGHWAY","flow":0.223,"flow_mld":19.3,"cat":"low","obs":"2026-10-08T09:00"}},{"type":"Feature","geometry":{"type":"Point","coordinates":[145.93067,-41.23616]},"properties":{"id":"TAS:14264-1","state":"TAS","name":"BLYTHE RIVER US SOUTH RIANA ROAD BRIDGE","flow":2.138,"flow_mld":184.7,"cat":"medium","obs":"2026-10-08T08:00"}},{"type":"Feature","geometry":{"type":"Point","coordinates":[145.94783,-41.22817]},"properties":{"id":"TAS:14266-1","state":"TAS","name":"SOUTH RIANA DAM INFLOW","flow":0.037,"flow_mld":3.2,"cat":"low","obs":"2026-10-08T08:00"}},{"type":"Feature","geometry":{"type":"Point","coordinates":[147.56539,-41.81579]},"properties":{"id":"TAS:150-1","state":"TAS","name":"SOUTH ESK RIVER AT LLEWELLYN","flow":2.144,"flow_mld":185.3,"cat":"medium","obs":"2026-10-08T08:15"}},{"type":"Feature","geometry":{"type":"Point","coordinates":[146.6591,-41.52384]},"properties":{"id":"TAS:162-1","state":"TAS","name":"MEANDER RIVER @ DELORAINE BR","flow":3.559,"flow_mld":307.5,"cat":"medium","obs":"2026-10-08T08:15"}},{"type":"Feature","geometry":{"type":"Point","coordinates":[146.31441,-41.19127]},"properties":{"id":"TAS:16200-1","state":"TAS","name":"DON RIVER US BASS HIGHWAY","flow":0.538,"flow_mld":46.5,"cat":"medium","obs":"2026-10-08T09:00"}},{"type":"Feature","geometry":{"type":"Point","coordinates":[146.39679,-41.69705]},"properties":{"id":"TAS:16201-1","state":"TAS","name":"FISHER RIVER U/S L.MACKENZIE","flow":0.744,"flow_mld":64.3,"cat":"medium","obs":"2026-10-08T08:15"}},{"type":"Feature","geometry":{"type":"Point","coordinates":[147.00292,-41.53476]},"properties":{"id":"TAS:164-1","state":"TAS","name":"LIFFEY RIVER AT CARRICK","flow":0.245,"flow_mld":21.1,"cat":"low","obs":"2026-10-08T08:00"}},{"type":"Feature","geometry":{"type":"Point","coordinates":[146.56539,-41.24811]},"properties":{"id":"TAS:17200-1","state":"TAS","name":"RUBICON RIVER AT TIDAL LIMIT","flow":0.177,"flow_mld":15.3,"cat":"low","obs":"2026-10-08T09:00"}},{"type":"Feature","geometry":{"type":"Point","coordinates":[146.56504,-41.45182]},"properties":{"id":"TAS:17203-1","state":"TAS","name":"RUBICON RIVER AT ELIZABETH TOWN","flow":0.101,"flow_mld":8.7,"cat":"low","obs":"2026-10-08T09:00"}},{"type":"Feature","geometry":{"type":"Point","coordinates":[146.53587,-41.18015]},"properties":{"id":"TAS:17204-1","state":"TAS","name":"PANATANA RIVULET US TIDAL LIMIT","flow":0.126,"flow_mld":10.9,"cat":"low","obs":"2026-10-08T08:00"}},{"type":"Feature","geometry":{"type":"Point","coordinates":[146.56078,-41.23874]},"properties":{"id":"TAS:17205-1","state":"TAS","name":"GREENS CREEK US FRANKFORD ROAD","flow":0.055,"flow_mld":4.8,"cat":"low","obs":"2026-10-08T08:00"}},{"type":"Feature","geometry":{"type":"Point","coordinates":[147.20409,-41.59713]},"properties":{"id":"TAS:181-1","state":"TAS","name":"SOUTH ESK RIVER AT PERTH","flow":1.656,"flow_mld":143.1,"cat":"medium","obs":"2026-10-08T09:00"}},{"type":"Feature","geometry":{"type":"Point","coordinates":[147.78273,-42.21206]},"properties":{"id":"TAS:18206-1","state":"TAS","name":"TOOMS RIVER DS TOOMS LAKE","flow":0.131,"flow_mld":11.4,"cat":"low","obs":"2026-10-08T09:00"}},{"type":"Feature","geometry":{"type":"Point","coordinates":[146.92694,-41.67223]},"properties":{"id":"TAS:18207-1","state":"TAS","name":"LIFFEY RIVER US STORAGE POND","flow":0.514,"flow_mld":44.5,"cat":"medium","obs":"2026-10-08T07:45"}},{"type":"Feature","geometry":{"type":"Point","coordinates":[146.95159,-41.6342]},"properties":{"id":"TAS:18209-1","state":"TAS","name":"LIFFEY RIVER US WEST CHANNEL","flow":0.569,"flow_mld":49.2,"cat":"medium","obs":"2026-10-08T09:00"}},{"type":"Feature","geometry":{"type":"Point","coordinates":[147.79345,-42.00304]},"properties":{"id":"TAS:18211-1","state":"TAS","name":"ELIZABETH RIVER DS LAKE LEAKE","flow":0.133,"flow_mld":11.5,"cat":"low","obs":"2026-10-08T08:00"}},{"type":"Feature","geometry":{"type":"Point","coordinates":[147.60304,-42.18048]},"properties":{"id":"TAS:18217-1","state":"TAS","name":"MACQUARIE RIVER AT TREFUSIS","flow":0.113,"flow_mld":9.7,"cat":"low","obs":"2026-10-08T09:00"}},{"type":"Feature","geometry":{"type":"Point","coordinates":[147.0995,-41.61713]},"properties":{"id":"TAS:18219-1","state":"TAS","name":"BACK CREEK US WILMORES LANE","flow":0.281,"flow_mld":24.3,"cat":"low","obs":"2026-10-08T09:00"}},{"type":"Feature","geometry":{"type":"Point","coordinates":[146.6565,-41.67381]},"properties":{"id":"TAS:18221-1","state":"TAS","name":"JACKEYS CREEK DS JACKEYS MARSH","flow":0.166,"flow_mld":14.3,"cat":"low","obs":"2026-10-08T09:00"}},{"type":"Feature","geometry":{"type":"Point","coordinates":[147.7299,-41.78742]},"properties":{"id":"TAS:18311-1","state":"TAS","name":"ST PAULS RIVER US SOUTH ESK RIVER","flow":0.157,"flow_mld":13.6,"cat":"low","obs":"2026-10-08T09:15"}},{"type":"Feature","geometry":{"type":"Point","coordinates":[147.39025,-41.9114]},"properties":{"id":"TAS:18312-1","state":"TAS","name":"MACQUARIE RIVER DS ELIZABETH RIVER","flow":0.145,"flow_mld":12.5,"cat":"low","obs":"2026-10-08T08:00"}},{"type":"Feature","geometry":{"type":"Point","coordinates":[147.42467,-41.93069]},"properties":{"id":"TAS:18313-1","state":"TAS","name":"MACQUARIE RIVER 1.25KM US ELIZABETH RIVER","flow":0.062,"flow_mld":5.3,"cat":"low","obs":"2026-10-08T08:00"}},{"type":"Feature","geometry":{"type":"Point","coordinates":[147.49557,-42.06042]},"properties":{"id":"TAS:18315-1","state":"TAS","name":"MACQUARIE RIVER 3KM US ROSS","flow":0.118,"flow_mld":10.2,"cat":"low","obs":"2026-10-08T08:00"}},{"type":"Feature","geometry":{"type":"Point","coordinates":[148.0569,-41.5945]},"properties":{"id":"TAS:191-1","state":"TAS","name":"BREAK O'DAY RIVER AT KILLYMOON BRIDGE","flow":0.061,"flow_mld":5.3,"cat":"low","obs":"2026-10-08T09:00"}},{"type":"Feature","geometry":{"type":"Point","coordinates":[147.37254,-41.02099]},"properties":{"id":"TAS:19200-1","state":"TAS","name":"BRID RIVER US TIDAL LIMIT","flow":1.03,"flow_mld":89.0,"cat":"medium","obs":"2026-10-08T08:00"}},{"type":"Feature","geometry":{"type":"Point","coordinates":[147.61233,-41.11243]},"properties":{"id":"TAS:19201-1","state":"TAS","name":"GREAT FORESTER RIVER 2KM US  FORESTER ROAD BRIDGE","flow":1.393,"flow_mld":120.4,"cat":"medium","obs":"2026-10-08T08:00"}},{"type":"Feature","geometry":{"type":"Point","coordinates":[147.75241,-40.89151]},"properties":{"id":"TAS:19202-1","state":"TAS","name":"TOMAHAWK RIVER US TIDAL LIMIT","flow":0.102,"flow_mld":8.8,"cat":"low","obs":"2026-10-08T08:00"}},{"type":"Feature","geometry":{"type":"Point","coordinates":[147.47553,-41.1848]},"properties":{"id":"TAS:19203-1","state":"TAS","name":"BRID RIVER US SLEDGE TRACK BRIDGE","flow":0.541,"flow_mld":46.7,"cat":"medium","obs":"2026-10-08T09:00"}},{"type":"Feature","geometry":{"type":"Point","coordinates":[147.11427,-41.06711]},"properties":{"id":"TAS:19204-1","state":"TAS","name":"PIPERS RIVER DS YARROW CREEK","flow":0.608,"flow_mld":52.5,"cat":"medium","obs":"2026-10-08T09:00"}},{"type":"Feature","geometry":{"type":"Point","coordinates":[147.33119,-41.10423]},"properties":{"id":"TAS:19206-1","state":"TAS","name":"LITTLE FORESTER RIVER DS DENISON RIVER","flow":0.654,"flow_mld":56.5,"cat":"medium","obs":"2026-10-08T08:00"}},{"type":"Feature","geometry":{"type":"Point","coordinates":[147.81455,-40.97736]},"properties":{"id":"TAS:19209-1","state":"TAS","name":"BOOBYALLA RIVER US CAMPBELL CREEK","flow":0.412,"flow_mld":35.6,"cat":"low","obs":"2026-10-08T08:00"}},{"type":"Feature","geometry":{"type":"Point","coordinates":[147.56195,-41.2059]},"properties":{"id":"TAS:19224-1","state":"TAS","name":"GREAT FORESTER RIVER AT PROSPERITY ROAD","flow":0.525,"flow_mld":45.4,"cat":"medium","obs":"2026-10-08T09:00"}},{"type":"Feature","geometry":{"type":"Point","coordinates":[148.07662,-42.04596]},"properties":{"id":"TAS:2200-1","state":"TAS","name":"SWAN RIVER AT THE GRANGE","flow":0.036,"flow_mld":3.1,"cat":"low","obs":"2026-10-08T09:00"}},{"type":"Feature","geometry":{"type":"Point","coordinates":[148.23685,-41.93891]},"properties":{"id":"TAS:2204-1","state":"TAS","name":"APSLEY RIVER US COLES BAY ROAD BRIDGE","flow":0.002,"flow_mld":0.2,"cat":"dry","obs":"2026-10-08T09:00"}},{"type":"Feature","geometry":{"type":"Point","coordinates":[148.21719,-41.29123]},"properties":{"id":"TAS:2205-1","state":"TAS","name":"GEORGE RIVER AT ST HELENS WATER SUPPLY","flow":1.221,"flow_mld":105.5,"cat":"medium","obs":"2026-10-08T09:00"}},{"type":"Feature","geometry":{"type":"Point","coordinates":[148.1793,-41.44581]},"properties":{"id":"TAS:2206-1","state":"TAS","name":"SCAMANDER RIVER US SCAMANDER WATER SUPPLY","flow":0.076,"flow_mld":6.6,"cat":"low","obs":"2026-10-08T09:00"}},{"type":"Feature","geometry":{"type":"Point","coordinates":[148.03948,-42.12183]},"properties":{"id":"TAS:2208-1","state":"TAS","name":"MEREDITH RIVER AT SWANSEA","flow":0.004,"flow_mld":0.3,"cat":"dry","obs":"2026-10-08T09:00"}},{"type":"Feature","geometry":{"type":"Point","coordinates":[147.70523,-42.86548]},"properties":{"id":"TAS:2209-1","state":"TAS","name":"CARLTON RIVER AT TIDAL LIMIT","flow":0.001,"flow_mld":0.1,"cat":"dry","obs":"2026-10-08T09:00"}},{"type":"Feature","geometry":{"type":"Point","coordinates":[148.21736,-41.04638]},"properties":{"id":"TAS:2214-1","state":"TAS","name":"ANSONS RIVER DS BIG BOGGY CREEK","flow":0.072,"flow_mld":6.3,"cat":"low","obs":"2026-10-08T09:00"}},{"type":"Feature","geometry":{"type":"Point","coordinates":[148.0746,-41.24889]},"properties":{"id":"TAS:2217-1","state":"TAS","name":"RANSOM RIVER AT SWEETS HILL","flow":0.104,"flow_mld":9.0,"cat":"low","obs":"2026-10-08T09:00"}},{"type":"Feature","geometry":{"type":"Point","coordinates":[148.10084,-41.84776]},"properties":{"id":"TAS:2219-1","state":"TAS","name":"SWAN RIVER US HARDINGS FALLS","flow":0.008,"flow_mld":0.7,"cat":"low","obs":"2026-10-08T09:00"}},{"type":"Feature","geometry":{"type":"Point","coordinates":[148.08034,-41.9927]},"properties":{"id":"TAS:2239-1","state":"TAS","name":"SWAN RIVER US TASMAN HIGHWAY","flow":0.032,"flow_mld":2.8,"cat":"low","obs":"2026-10-08T08:00"}},{"type":"Feature","geometry":{"type":"Point","coordinates":[147.41042,-41.60259]},"properties":{"id":"TAS:25-1","state":"TAS","name":"NILE RIVER AT DEDDINGTON","flow":0.813,"flow_mld":70.2,"cat":"medium","obs":"2026-10-08T09:00"}},{"type":"Feature","geometry":{"type":"Point","coordinates":[147.37483,-42.13825]},"properties":{"id":"TAS:2606-1","state":"TAS","name":"BLACKMAN RIVER US FLOODS CREEK","flow":0.087,"flow_mld":7.5,"cat":"low","obs":"2026-10-08T08:00"}},{"type":"Feature","geometry":{"type":"Point","coordinates":[147.46288,-42.10499]},"properties":{"id":"TAS:2608-1","state":"TAS","name":"BLACKMAN RIVER US ELBOW LAGOON","flow":0.135,"flow_mld":11.7,"cat":"low","obs":"2026-10-08T08:00"}},{"type":"Feature","geometry":{"type":"Point","coordinates":[147.86741,-41.12609]},"properties":{"id":"TAS:30-2","state":"TAS","name":"RINGAROOMA RIVER AT MOORINA","flow":3.391,"flow_mld":292.9,"cat":"medium","obs":"2026-10-08T09:00"}},{"type":"Feature","geometry":{"type":"Point","coordinates":[147.12997,-41.73008]},"properties":{"id":"TAS:301-1","state":"TAS","name":"LAKE RIVER @ LAKE HOUSE","flow":1.638,"flow_mld":141.6,"cat":"medium","obs":"2026-10-08T08:15"}},{"type":"Feature","geometry":{"type":"Point","coordinates":[147.44117,-42.63522]},"properties":{"id":"TAS:303213-1","state":"TAS","name":"COAL RIVER DOWNSTREAM BROWN MOUNTAIN ROAD","flow":0.135,"flow_mld":11.6,"cat":"low","obs":"2026-10-08T08:00"}},{"type":"Feature","geometry":{"type":"Point","coordinates":[146.97427,-42.73518]},"properties":{"id":"TAS:304220-1","state":"TAS","name":"DERWENT RIVER 1.7KM DS PLENTY RIVER","flow":76.219,"flow_mld":6585.3,"cat":"high","obs":"2026-10-08T09:00"}},{"type":"Feature","geometry":{"type":"Point","coordinates":[147.04911,-43.01349]},"properties":{"id":"TAS:306204-1","state":"TAS","name":"MOUNTAIN RIVER U/S GLEN HUON BRIDGE","flow":0.245,"flow_mld":21.2,"cat":"low","obs":"2026-10-08T08:45"}},{"type":"Feature","geometry":{"type":"Point","coordinates":[147.45391,-42.64972]},"properties":{"id":"TAS:3202-1","state":"TAS","name":"COAL RIVER US WHITE KANGAROO RIVULET","flow":0.121,"flow_mld":10.5,"cat":"low","obs":"2026-10-08T08:00"}},{"type":"Feature","geometry":{"type":"Point","coordinates":[147.40469,-42.5557]},"properties":{"id":"TAS:3206-1","state":"TAS","name":"COAL RIVER DS CRAIGBOURNE DAM","flow":0.267,"flow_mld":23.0,"cat":"low","obs":"2026-10-08T09:00"}},{"type":"Feature","geometry":{"type":"Point","coordinates":[147.44144,-42.73699]},"properties":{"id":"TAS:3208-1","state":"TAS","name":"COAL RIVER AT RICHMOND","flow":0.018,"flow_mld":1.6,"cat":"low","obs":"2026-10-08T08:00"}},{"type":"Feature","geometry":{"type":"Point","coordinates":[147.46672,-42.64877]},"properties":{"id":"TAS:3209-1","state":"TAS","name":"WHITE KANGAROO RIVULET US COAL RIVER","flow":0.001,"flow_mld":0.1,"cat":"dry","obs":"2026-10-08T08:00"}},{"type":"Feature","geometry":{"type":"Point","coordinates":[147.71955,-41.41984]},"properties":{"id":"TAS:3364-1","state":"TAS","name":"SOUTH ESK RIVER AT UPPER ESK ROAD BRIDGE","flow":0.655,"flow_mld":56.6,"cat":"medium","obs":"2026-10-08T07:45"}},{"type":"Feature","geometry":{"type":"Point","coordinates":[146.5371,-41.58905]},"properties":{"id":"TAS:3395-1","state":"TAS","name":"WESTERN CREEK AT BANKTON ROAD BRIDGE","flow":0.232,"flow_mld":20.0,"cat":"low","obs":"2026-10-08T09:00"}},{"type":"Feature","geometry":{"type":"Point","coordinates":[146.35049,-41.53421]},"properties":{"id":"TAS:3703-1","state":"TAS","name":"MOLE CREEK DS SASSAFRAS CREEK","flow":0.983,"flow_mld":84.9,"cat":"medium","obs":"2026-10-08T09:00"}},{"type":"Feature","geometry":{"type":"Point","coordinates":[147.12428,-42.52807]},"properties":{"id":"TAS:4201-1","state":"TAS","name":"JORDAN RIVER AT MAURICETON","flow":0.003,"flow_mld":0.2,"cat":"dry","obs":"2026-10-08T09:00"}},{"type":"Feature","geometry":{"type":"Point","coordinates":[147.30052,-41.39581]},"properties":{"id":"TAS:444-1","state":"TAS","name":"ST PATRICKS RIVER AT NUNAMARA OFFTAKE","flow":2.238,"flow_mld":193.3,"cat":"medium","obs":"2026-10-08T08:00"}},{"type":"Feature","geometry":{"type":"Point","coordinates":[147.30052,-41.3961]},"properties":{"id":"TAS:444-2","state":"TAS","name":"ST PATRICKS RIVER AT NUNAMARA DIVERSION FLUME","flow":0.418,"flow_mld":36.1,"cat":"low","obs":"2026-10-08T08:00"}},{"type":"Feature","geometry":{"type":"Point","coordinates":[146.42303,-41.27437]},"properties":{"id":"TAS:447-1","state":"TAS","name":"MERSEY RIVER AT SHALE ROAD","flow":6.472,"flow_mld":559.1,"cat":"medium","obs":"2026-10-08T08:00"}},{"type":"Feature","geometry":{"type":"Point","coordinates":[146.13055,-41.61067]},"properties":{"id":"TAS:450-1","state":"TAS","name":"FORTH RIVER A/B LEMONTHYME","flow":8.308,"flow_mld":717.8,"cat":"medium","obs":"2026-10-08T07:45"}},{"type":"Feature","geometry":{"type":"Point","coordinates":[145.95094,-43.14064]},"properties":{"id":"TAS:473-1","state":"TAS","name":"DAVEY RIVER DS CROSSING RIVER","flow":25.664,"flow_mld":2217.4,"cat":"high","obs":"2026-10-08T08:00"}},{"type":"Feature","geometry":{"type":"Point","coordinates":[146.70946,-42.70607]},"properties":{"id":"TAS:499-1","state":"TAS","name":"TYENNA RIVER AT NEWBURY ROAD","flow":3.152,"flow_mld":272.3,"cat":"medium","obs":"2026-10-08T09:00"}},{"type":"Feature","geometry":{"type":"Point","coordinates":[147.24425,-43.00606]},"properties":{"id":"TAS:5201-1","state":"TAS","name":"NORTH WEST BAY RIVER US MARGATE WATER SUPPLY INTAKE","flow":0.131,"flow_mld":11.3,"cat":"low","obs":"2026-10-08T08:00"}},{"type":"Feature","geometry":{"type":"Point","coordinates":[149.19866,-37.37294]},"properties":{"id":"VIC:221201","state":"VIC","name":"CANN RIVER (WEST BRANCH) @ WEERAGUA","flow":0.4,"flow_mld":34.6,"cat":"low","obs":"2026-10-08T08:00"}},{"type":"Feature","geometry":{"type":"Point","coordinates":[149.48661,-37.38209]},"properties":{"id":"VIC:221202","state":"VIC","name":"GENOA RIVER @ WANGARABELL","flow":0.555,"flow_mld":48.0,"cat":"medium","obs":"2026-10-08T09:00"}},{"type":"Feature","geometry":{"type":"Point","coordinates":[148.91526,-37.44704]},"properties":{"id":"VIC:221207","state":"VIC","name":"ERRINUNDRA RIVER @ ERRINUNDRA","flow":1.022,"flow_mld":88.3,"cat":"medium","obs":"2026-10-08T09:00"}},{"type":"Feature","geometry":{"type":"Point","coordinates":[149.49177,-37.68877]},"properties":{"id":"VIC:221208","state":"VIC","name":"WINGAN RIVER @ WINGAN INLET NATIONAL PARK","flow":1.117,"flow_mld":96.5,"cat":"medium","obs":"2026-10-08T09:00"}},{"type":"Feature","geometry":{"type":"Point","coordinates":[149.20705,-37.35543]},"properties":{"id":"VIC:221209","state":"VIC","name":"CANN RIVER (EAST BRANCH) @ WEERAGUA","flow":0.095,"flow_mld":8.2,"cat":"low","obs":"2026-10-08T07:00"}},{"type":"Feature","geometry":{"type":"Point","coordinates":[149.52038,-37.41577]},"properties":{"id":"VIC:221210","state":"VIC","name":"GENOA RIVER @ THE GORGE","flow":0.594,"flow_mld":51.3,"cat":"medium","obs":"2026-10-08T09:00"}},{"type":"Feature","geometry":{"type":"Point","coordinates":[148.90165,-37.60713]},"properties":{"id":"VIC:221212","state":"VIC","name":"BEMM RIVER @ PRINCES HIGHWAY","flow":2.791,"flow_mld":241.1,"cat":"medium","obs":"2026-10-08T09:00"}},{"type":"Feature","geometry":{"type":"Point","coordinates":[149.63562,-37.59534]},"properties":{"id":"VIC:221218","state":"VIC","name":"BETKA RIVER @ MINERS TRACK","flow":0.137,"flow_mld":11.8,"cat":"low","obs":"2026-10-08T05:00"}},{"type":"Feature","geometry":{"type":"Point","coordinates":[149.15669,-37.53865]},"properties":{"id":"VIC:221224","state":"VIC","name":"CANN RIVER @ U/S CANN RIVER OFFTAKE","flow":0.666,"flow_mld":57.5,"cat":"medium","obs":"2026-10-08T09:00"}},{"type":"Feature","geometry":{"type":"Point","coordinates":[148.951,-37.72962]},"properties":{"id":"VIC:221225","state":"VIC","name":"BEMM RIVER @ U/S OF PUMPHOUSE","flow":3.237,"flow_mld":279.7,"cat":"medium","obs":"2026-10-08T09:00"}},{"type":"Feature","geometry":{"type":"Point","coordinates":[148.36131,-37.66109]},"properties":{"id":"VIC:222200","state":"VIC","name":"SNOWY RIVER @ JARRAHMOND","flow":28.265,"flow_mld":2442.1,"cat":"high","obs":"2026-10-08T09:00"}},{"type":"Feature","geometry":{"type":"Point","coordinates":[148.45095,-37.70739]},"properties":{"id":"VIC:222201","state":"VIC","name":"SNOWY RIVER @ ORBOST","flow":11.564,"flow_mld":999.1,"cat":"high","obs":"2026-10-08T09:00"}},{"type":"Feature","geometry":{"type":"Point","coordinates":[148.54733,-37.51153]},"properties":{"id":"VIC:222202","state":"VIC","name":"BRODRIBB RIVER @ SARDINE CREEK","flow":2.098,"flow_mld":181.3,"cat":"medium","obs":"2026-10-08T09:00"}},{"type":"Feature","geometry":{"type":"Point","coordinates":[148.17324,-37.49584]},"properties":{"id":"VIC:222206","state":"VIC","name":"BUCHAN RIVER @ BUCHAN","flow":3.218,"flow_mld":278.0,"cat":"medium","obs":"2026-10-08T09:00"}},{"type":"Feature","geometry":{"type":"Point","coordinates":[148.41326,-37.08363]},"properties":{"id":"VIC:222209","state":"VIC","name":"SNOWY RIVER @ MCKILLOPS BRIDGE","flow":20.586,"flow_mld":1778.6,"cat":"high","obs":"2026-10-08T09:00"}},{"type":"Feature","geometry":{"type":"Point","coordinates":[148.42415,-37.08537]},"properties":{"id":"VIC:222210","state":"VIC","name":"DEDDICK RIVER @ DEDDICK (CASEYS)","flow":0.638,"flow_mld":55.1,"cat":"medium","obs":"2026-10-08T09:00"}},{"type":"Feature","geometry":{"type":"Point","coordinates":[148.32748,-36.95493]},"properties":{"id":"VIC:222213","state":"VIC","name":"SUGGAN BUGGAN RIVER @ SUGGAN BUGGAN","flow":1.51,"flow_mld":130.5,"cat":"medium","obs":"2026-10-08T09:00"}},{"type":"Feature","geometry":{"type":"Point","coordinates":[148.27362,-37.49908]},"properties":{"id":"VIC:222219","state":"VIC","name":"SNOWY RIVER @ D/S OF BASIN CREEK","flow":24.232,"flow_mld":2093.6,"cat":"high","obs":"2026-10-08T09:00"}},{"type":"Feature","geometry":{"type":"Point","coordinates":[148.17469,-37.47048]},"properties":{"id":"VIC:222221","state":"VIC","name":"BUCHAN RIVER @ EGW OFFTAKE","flow":2.775,"flow_mld":239.8,"cat":"medium","obs":"2026-10-08T08:00"}},{"type":"Feature","geometry":{"type":"Point","coordinates":[148.65385,-37.62894]},"properties":{"id":"VIC:222222","state":"VIC","name":"ROCKY RIVER @ ROCKY RIVER (DIVERSION WEIR)","flow":0.004,"flow_mld":0.3,"cat":"dry","obs":"2019-12-31T02:00"}},{"type":"Feature","geometry":{"type":"Point","coordinates":[147.72882,-37.26878]},"properties":{"id":"VIC:223202","state":"VIC","name":"TAMBO RIVER @ SWIFTS CREEK","flow":1.091,"flow_mld":94.3,"cat":"medium","obs":"2026-10-08T07:00"}},{"type":"Feature","geometry":{"type":"Point","coordinates":[147.86985,-37.67253]},"properties":{"id":"VIC:223205","state":"VIC","name":"TAMBO RIVER @ D/S OF RAMROD CREEK","flow":3.391,"flow_mld":293.0,"cat":"medium","obs":"2026-10-08T08:00"}},{"type":"Feature","geometry":{"type":"Point","coordinates":[147.77384,-37.15982]},"properties":{"id":"VIC:223208","state":"VIC","name":"TAMBO RIVER @ BINDI (NEAR JUNCTION CREEK)","flow":0.008,"flow_mld":0.7,"cat":"low","obs":"2026-10-08T04:00"}},{"type":"Feature","geometry":{"type":"Point","coordinates":[147.71093,-37.73766]},"properties":{"id":"VIC:223210","state":"VIC","name":"NICHOLSON RIVER @ SARSFIELD","flow":0.0,"flow_mld":0.0,"cat":"dry","obs":"2019-11-19T14:30"}},{"type":"Feature","geometry":{"type":"Point","coordinates":[147.92764,-36.95471]},"properties":{"id":"VIC:223214","state":"VIC","name":"TAMBO RIVER @ U/S OF SMITH CREEK","flow":0.039,"flow_mld":3.4,"cat":"low","obs":"2026-10-08T07:00"}},{"type":"Feature","geometry":{"type":"Point","coordinates":[147.69537,-37.72761]},"properties":{"id":"VIC:223218","state":"VIC","name":"NICHOLSON RIVER @ GRANITE ROCK","flow":1.123,"flow_mld":97.0,"cat":"medium","obs":"2026-10-08T09:00"}},{"type":"Feature","geometry":{"type":"Point","coordinates":[147.16644,-37.48996]},"properties":{"id":"VIC:224201","state":"VIC","name":"WONNANGATTA RIVER @ WATERFORD","flow":19.371,"flow_mld":1673.7,"cat":"high","obs":"2026-10-08T08:00"}},{"type":"Feature","geometry":{"type":"Point","coordinates":[147.08916,-37.4075]},"properties":{"id":"VIC:224206","state":"VIC","name":"WONNANGATTA RIVER @ CROOKED RIVER","flow":12.51,"flow_mld":1080.9,"cat":"high","obs":"2026-10-08T07:00"}},{"type":"Feature","geometry":{"type":"Point","coordinates":[147.2687,-37.49512]},"properties":{"id":"VIC:224213","state":"VIC","name":"DARGO RIVER @ LOWER DARGO ROAD","flow":4.116,"flow_mld":355.6,"cat":"medium","obs":"2026-10-08T07:00"}},{"type":"Feature","geometry":{"type":"Point","coordinates":[147.3682,-37.73655]},"properties":{"id":"VIC:224222","state":"VIC","name":"MITCHELL RIVER @ U/S GLENALADALE PUMPHOUSE","flow":31.138,"flow_mld":2690.3,"cat":"high","obs":"2026-10-08T08:00"}},{"type":"Feature","geometry":{"type":"Point","coordinates":[146.78014,-37.98544]},"properties":{"id":"VIC:225200","state":"VIC","name":"THOMSON RIVER @ HEYFIELD","flow":1.897,"flow_mld":163.9,"cat":"medium","obs":"2018-09-29T06:00"}},{"type":"Feature","geometry":{"type":"Point","coordinates":[146.80532,-37.90204]},"properties":{"id":"VIC:225204","state":"VIC","name":"MACALISTER RIVER @ LAKE GLENMAGGIE (TAIL GAUGE)","flow":1.95,"flow_mld":168.5,"cat":"medium","obs":"2018-09-29T06:00"}},{"type":"Feature","geometry":{"type":"Point","coordinates":[146.62331,-37.62961]},"properties":{"id":"VIC:225209","state":"VIC","name":"MACALISTER RIVER @ LICOLA","flow":16.372,"flow_mld":1414.5,"cat":"high","obs":"2026-10-08T08:00"}},{"type":"Feature","geometry":{"type":"Point","coordinates":[146.881,-38.01069]},"properties":{"id":"VIC:225212","state":"VIC","name":"THOMSON RIVER @ WANDOCKA","flow":12.109,"flow_mld":1046.2,"cat":"high","obs":"2026-10-08T08:00"}},{"type":"Feature","geometry":{"type":"Point","coordinates":[146.56648,-37.51622]},"properties":{"id":"VIC:225219","state":"VIC","name":"MACALISTER RIVER @ GLENCAIRN","flow":8.729,"flow_mld":754.2,"cat":"medium","obs":"2026-10-08T05:00"}},{"type":"Feature","geometry":{"type":"Point","coordinates":[146.66775,-37.76935]},"properties":{"id":"VIC:225221","state":"VIC","name":"MACALISTER RIVER @ STRINGYBARK CREEK","flow":1.08,"flow_mld":93.3,"cat":"medium","obs":"2020-02-05T14:00"}},{"type":"Feature","geometry":{"type":"Point","coordinates":[146.88491,-37.80184]},"properties":{"id":"VIC:225224","state":"VIC","name":"AVON RIVER @ THE CHANNEL","flow":4.151,"flow_mld":358.6,"cat":"medium","obs":"2026-10-08T09:00"}},{"type":"Feature","geometry":{"type":"Point","coordinates":[146.65611,-37.91372]},"properties":{"id":"VIC:225230","state":"VIC","name":"GLENMAGGIE CREEK @ THE GORGE","flow":0.041,"flow_mld":3.5,"cat":"low","obs":"2018-09-29T06:00"}},{"type":"Feature","geometry":{"type":"Point","coordinates":[146.625,-37.975]},"properties":{"id":"VIC:225231","state":"VIC","name":"THOMSON RIVER @ U/S OF COWWARR WEIR","flow":6.699,"flow_mld":578.8,"cat":"medium","obs":"2026-10-08T09:00"}},{"type":"Feature","geometry":{"type":"Point","coordinates":[146.99211,-38.04527]},"properties":{"id":"VIC:225232","state":"VIC","name":"THOMSON RIVER @ BUNDALAGUAH","flow":49.626,"flow_mld":4287.7,"cat":"high","obs":"2026-10-08T08:00"}}]}