{"type":"FeatureCollection","goldfinder":{"schema_version":1},"features":[{"type":"Feature","geometry":{"type":"Polygon","coordinates":[[[146.25,-38.0],[146.5,-38.0],[146.5,-37.75],[146.25,-37.75],[146.25,-38.0]]]},"properties":{"cell":"585_-152","score":32.1,"a":0.381,"r":0.841,"w":0.5,"r7":44.1,"rmax24":39.0,"label":"Long Tunnel"}},{"type":"Feature","geometry":{"type":"Polygon","coordinates":[[[145.5,-42.0],[145.75,-42.0],[145.75,-41.75],[145.5,-41.75],[145.5,-42.0]]]},"properties":{"cell":"582_-168","score":29.2,"a":0.548,"r":0.594,"w":0.5,"r7":37.9,"rmax24":16.1,"label":"Rosebery"}},{"type":"Feature","geometry":{"type":"Polygon","coordinates":[[[140.25,-20.5],[140.5,-20.5],[140.5,-20.25],[140.25,-20.25],[140.25,-20.5]]]},"properties":{"cell":"561_-82","score":27.0,"a":0.558,"r":0.541,"w":0.5,"r7":23.2,"rmax24":23.2,"label":"Ivy Ann"}},{"type":"Feature","geometry":{"type":"Polygon","coordinates":[[[145.5,-42.25],[145.75,-42.25],[145.75,-42.0],[145.5,-42.0],[145.5,-42.25]]]},"properties":{"cell":"582_-169","score":25.7,"a":0.513,"r":0.546,"w":0.5,"r7":34.7,"rmax24":14.9,"label":"Lyell Comstock"}},{"type":"Feature","geometry":{"type":"Polygon","coordinates":[[[148.75,-33.75],[149.0,-33.75],[149.0,-33.5],[148.75,-33.5],[148.75,-33.75]]]},"properties":{"cell":"595_-135","score":25.4,"a":0.429,"r":0.612,"w":0.5,"r7":29.1,"rmax24":24.1,"label":"Sheahan-Grants"}},{"type":"Feature","geometry":{"type":"Polygon","coordinates":[[[145.25,-42.0],[145.5,-42.0],[145.5,-41.75],[145.25,-41.75],[145.25,-42.0]]]},"properties":{"cell":"581_-168","score":24.2,"a":0.507,"r":0.52,"w":0.5,"r7":33.3,"rmax24":14.0,"label":"Montezuma Silver-Antimony Project"}},{"type":"Feature","geometry":{"type":"Polygon","coordinates":[[[142.0,-18.25],[142.25,-18.25],[142.25,-18.0],[142.0,-18.0],[142.0,-18.25]]]},"properties":{"cell":"568_-73","score":24.0,"a":0.319,"r":0.712,"w":0.5,"r7":31.2,"rmax24":31.2,"label":"Sunset North"}},{"type":"Feature","geometry":{"type":"Polygon","coordinates":[[[149.75,-35.0],[150.0,-35.0],[150.0,-34.75],[149.75,-34.75],[149.75,-35.0]]]},"properties":{"cell":"599_-140","score":23.3,"a":0.28,"r":0.758,"w":0.5,"r7":38.2,"rmax24":28.2}},{"type":"Feature","geometry":{"type":"Polygon","coordinates":[[[147.5,-37.25],[147.75,-37.25],[147.75,-37.0],[147.5,-37.0],[147.5,-37.25]]]},"properties":{"cell":"590_-149","score":22.8,"a":0.319,"r":0.677,"w":0.5,"r7":31.0,"rmax24":27.5,"label":"Cassilis Goldfield"}},{"type":"Feature","geometry":{"type":"Polygon","coordinates":[[[145.5,-41.75],[145.75,-41.75],[145.75,-41.5],[145.5,-41.5],[145.5,-41.75]]]},"properties":{"cell":"582_-167","score":22.6,"a":0.472,"r":0.51,"w":0.5,"r7":32.9,"rmax24":13.6,"label":"Surface Open Pit"}},{"type":"Feature","geometry":{"type":"Polygon","coordinates":[[[146.0,-38.0],[146.25,-38.0],[146.25,-37.75],[146.0,-37.75],[146.0,-38.0]]]},"properties":{"cell":"584_-152","score":22.4,"a":0.296,"r":0.7,"w":0.5,"r7":33.1,"rmax24":27.7}},{"type":"Feature","geometry":{"type":"Polygon","coordinates":[[[149.0,-33.75],[149.25,-33.75],[149.25,-33.5],[149.0,-33.5],[149.0,-33.75]]]},"properties":{"cell":"596_-135","score":22.3,"a":0.522,"r":0.468,"w":0.5,"r7":23.6,"rmax24":17.4,"label":"Browns Creek"}},{"type":"Feature","geometry":{"type":"Polygon","coordinates":[[[145.75,-42.0],[146.0,-42.0],[146.0,-41.75],[145.75,-41.75],[145.75,-42.0]]]},"properties":{"cell":"583_-168","score":22.3,"a":0.479,"r":0.497,"w":0.5,"r7":31.3,"rmax24":13.8}},{"type":"Feature","geometry":{"type":"Polygon","coordinates":[[[146.5,-38.0],[146.75,-38.0],[146.75,-37.75],[146.5,-37.75],[146.5,-38.0]]]},"properties":{"cell":"586_-152","score":22.1,"a":0.242,"r":0.796,"w":0.5,"r7":39.6,"rmax24":37.4}},{"type":"Feature","geometry":{"type":"Polygon","coordinates":[[[145.75,-42.25],[146.0,-42.25],[146.0,-42.0],[145.75,-42.0],[145.75,-42.25]]]},"properties":{"cell":"583_-169","score":21.0,"a":0.416,"r":0.519,"w":0.5,"r7":33.6,"rmax24":13.7}},{"type":"Feature","geometry":{"type":"Polygon","coordinates":[[[149.0,-34.25],[149.25,-34.25],[149.25,-34.0],[149.0,-34.0],[149.0,-34.25]]]},"properties":{"cell":"596_-137","score":20.4,"a":0.231,"r":0.757,"w":0.5,"r7":38.8,"rmax24":27.7}},{"type":"Feature","geometry":{"type":"Polygon","coordinates":[[[140.75,-21.25],[141.0,-21.25],[141.0,-21.0],[140.75,-21.0],[140.75,-21.25]]]},"properties":{"cell":"563_-85","score":20.3,"a":0.495,"r":0.443,"w":0.5,"r7":19.0,"rmax24":19.0,"label":"Maronan"}},{"type":"Feature","geometry":{"type":"Polygon","coordinates":[[[140.25,-21.25],[140.5,-21.25],[140.5,-21.0],[140.25,-21.0],[140.25,-21.25]]]},"properties":{"cell":"561_-85","score":20.1,"a":0.543,"r":0.411,"w":0.5,"r7":17.6,"rmax24":17.6,"label":"McPhail"}},{"type":"Feature","geometry":{"type":"Polygon","coordinates":[[[151.5,-24.75],[151.75,-24.75],[151.75,-24.5],[151.5,-24.5],[151.5,-24.75]]]},"properties":{"cell":"606_-99","score":20.0,"a":0.364,"r":0.54,"w":0.5,"r7":30.7,"rmax24":17.5}},{"type":"Feature","geometry":{"type":"Polygon","coordinates":[[[131.5,-13.75],[131.75,-13.75],[131.75,-13.5],[131.5,-13.5],[131.5,-13.75]]]},"properties":{"cell":"526_-55","score":19.4,"a":0.663,"r":0.344,"w":0.5,"r7":16.4,"rmax24":13.5,"label":"Northern Territory Open Pit"}},{"type":"Feature","geometry":{"type":"Polygon","coordinates":[[[149.25,-34.25],[149.5,-34.25],[149.5,-34.0],[149.25,-34.0],[149.25,-34.25]]]},"properties":{"cell":"597_-137","score":18.6,"a":0.358,"r":0.508,"w":0.5,"r7":26.4,"rmax24":18.3,"label":"Tuena"}},{"type":"Feature","geometry":{"type":"Polygon","coordinates":[[[129.75,-20.0],[130.0,-20.0],[130.0,-19.75],[129.75,-19.75],[129.75,-20.0]]]},"properties":{"cell":"519_-80","score":18.6,"a":0.364,"r":0.503,"w":0.5,"r7":21.6,"rmax24":21.5,"label":"Black Hills"}},{"type":"Feature","geometry":{"type":"Polygon","coordinates":[[[140.0,-21.0],[140.25,-21.0],[140.25,-20.75],[140.0,-20.75],[140.0,-21.0]]]},"properties":{"cell":"560_-84","score":18.5,"a":0.56,"r":0.371,"w":0.5,"r7":15.9,"rmax24":15.9,"label":"Jubilee"}},{"type":"Feature","geometry":{"type":"Polygon","coordinates":[[[147.0,-37.25],[147.25,-37.25],[147.25,-37.0],[147.0,-37.0],[147.0,-37.25]]]},"properties":{"cell":"588_-149","score":18.2,"a":0.208,"r":0.728,"w":0.5,"r7":32.8,"rmax24":30.8,"label":"Rose of Denmark"}},{"type":"Feature","geometry":{"type":"Polygon","coordinates":[[[145.25,-42.25],[145.5,-42.25],[145.5,-42.0],[145.25,-42.0],[145.25,-42.25]]]},"properties":{"cell":"581_-169","score":18.2,"a":0.446,"r":0.427,"w":0.5,"r7":26.3,"rmax24":12.3,"label":"King Delta"}},{"type":"Feature","geometry":{"type":"Polygon","coordinates":[[[145.25,-41.75],[145.5,-41.75],[145.5,-41.5],[145.25,-41.5],[145.25,-41.75]]]},"properties":{"cell":"581_-167","score":18.1,"a":0.411,"r":0.45,"w":0.5,"r7":29.8,"rmax24":11.4,"label":"Wilson River A"}},{"type":"Feature","geometry":{"type":"Polygon","coordinates":[[[152.25,-26.25],[152.5,-26.25],[152.5,-26.0],[152.25,-26.0],[152.25,-26.25]]]},"properties":{"cell":"609_-105","score":17.5,"a":0.261,"r":0.597,"w":0.5,"r7":31.8,"rmax24":20.9,"label":"Shamrock"}},{"type":"Feature","geometry":{"type":"Polygon","coordinates":[[[145.75,-41.75],[146.0,-41.75],[146.0,-41.5],[145.75,-41.5],[145.75,-41.75]]]},"properties":{"cell":"583_-167","score":17.3,"a":0.438,"r":0.411,"w":0.5,"r7":27.0,"rmax24":10.6}},{"type":"Feature","geometry":{"type":"Polygon","coordinates":[[[148.75,-33.5],[149.0,-33.5],[149.0,-33.25],[148.75,-33.25],[148.75,-33.5]]]},"properties":{"cell":"595_-134","score":17.1,"a":0.498,"r":0.372,"w":0.5,"r7":21.3,"rmax24":11.9,"label":"White Engine (Cadia, Old Cadia)"}},{"type":"Feature","geometry":{"type":"Polygon","coordinates":[[[145.5,-42.5],[145.75,-42.5],[145.75,-42.25],[145.5,-42.25],[145.5,-42.5]]]},"properties":{"cell":"582_-170","score":17.1,"a":0.326,"r":0.5,"w":0.5,"r7":29.7,"rmax24":15.2}},{"type":"Feature","geometry":{"type":"Polygon","coordinates":[[[146.0,-37.75],[146.25,-37.75],[146.25,-37.5],[146.0,-37.5],[146.0,-37.75]]]},"properties":{"cell":"584_-151","score":16.8,"a":0.352,"r":0.464,"w":0.5,"r7":22.5,"rmax24":17.9,"label":"Morning Star - Woods Point"}},{"type":"Feature","geometry":{"type":"Polygon","coordinates":[[[149.5,-35.75],[149.75,-35.75],[149.75,-35.5],[149.5,-35.5],[149.5,-35.75]]]},"properties":{"cell":"598_-143","score":16.6,"a":0.296,"r":0.518,"w":0.5,"r7":25.0,"rmax24":20.1,"label":"Dargues Reef"}},{"type":"Feature","geometry":{"type":"Polygon","coordinates":[[[147.75,-37.25],[148.0,-37.25],[148.0,-37.0],[147.75,-37.0],[147.75,-37.25]]]},"properties":{"cell":"591_-149","score":16.6,"a":0.271,"r":0.552,"w":0.5,"r7":24.9,"rmax24":22.7,"label":"Wilga"}},{"type":"Feature","geometry":{"type":"Polygon","coordinates":[[[145.75,-42.5],[146.0,-42.5],[146.0,-42.25],[145.75,-42.25],[145.75,-42.5]]]},"properties":{"cell":"583_-170","score":16.5,"a":0.312,"r":0.497,"w":0.5,"r7":30.5,"rmax24":14.4}},{"type":"Feature","geometry":{"type":"Polygon","coordinates":[[[149.5,-35.0],[149.75,-35.0],[149.75,-34.75],[149.5,-34.75],[149.5,-35.0]]]},"properties":{"cell":"598_-140","score":16.4,"a":0.312,"r":0.495,"w":0.5,"r7":27.5,"rmax24":16.5,"label":"Currawang East"}},{"type":"Feature","geometry":{"type":"Polygon","coordinates":[[[146.25,-37.75],[146.5,-37.75],[146.5,-37.5],[146.25,-37.5],[146.25,-37.75]]]},"properties":{"cell":"585_-151","score":16.3,"a":0.319,"r":0.484,"w":0.5,"r7":22.0,"rmax24":19.8,"label":"Toombon"}},{"type":"Feature","geometry":{"type":"Polygon","coordinates":[[[139.75,-21.0],[140.0,-21.0],[140.0,-20.75],[139.75,-20.75],[139.75,-21.0]]]},"properties":{"cell":"559_-84","score":16.1,"a":0.442,"r":0.38,"w":0.5,"r7":16.3,"rmax24":16.3,"label":"Lady Jenny"}},{"type":"Feature","geometry":{"type":"Polygon","coordinates":[[[149.75,-35.25],[150.0,-35.25],[150.0,-35.0],[149.75,-35.0],[149.75,-35.25]]]},"properties":{"cell":"599_-141","score":15.9,"a":0.296,"r":0.497,"w":0.5,"r7":26.5,"rmax24":17.4}},{"type":"Feature","geometry":{"type":"Polygon","coordinates":[[[116.75,-29.25],[117.0,-29.25],[117.0,-29.0],[116.75,-29.0],[116.75,-29.25]]]},"properties":{"cell":"467_-117","score":15.3,"a":0.56,"r":0.305,"w":0.5,"r7":13.6,"rmax24":12.7,"label":"Highland Chief"}},{"type":"Feature","geometry":{"type":"Polygon","coordinates":[[[149.0,-34.0],[149.25,-34.0],[149.25,-33.75],[149.0,-33.75],[149.0,-34.0]]]},"properties":{"cell":"596_-136","score":15.3,"a":0.326,"r":0.446,"w":0.5,"r7":21.8,"rmax24":17.1}}]}