{"type":"FeatureCollection","goldfinder":{"schema_version":1},"features":[{"type":"Feature","geometry":{"type":"Point","coordinates":[121.1377,-29.6781]},"properties":{"id":"ga.erl.mineraloccurrenceview.1031907","source":"ozmin","title":"Gigante Grande","detail":"Gold","first_seen":"2026-08-28","url":"https://services.ga.gov.au/gis/earthresource/wfs?service=WFS&version=2.0.0&request=GetFeature&typeNames=erl:MineralOccurrenceView&featureID=ga.erl.mineraloccurrenceview.1031907&outputFormat=application/json"}},{"type":"Feature","geometry":{"type":"Point","coordinates":[121.1377,-29.6781]},"properties":{"id":"ga.erl.mineraloccurrenceview.1031908","source":"ozmin","title":"In situ","detail":"Gold","first_seen":"2026-08-28","url":"https://services.ga.gov.au/gis/earthresource/wfs?service=WFS&version=2.0.0&request=GetFeature&typeNames=erl:MineralOccurrenceView&featureID=ga.erl.mineraloccurrenceview.1031908&outputFormat=application/json"}},{"type":"Feature","geometry":{"type":"Point","coordinates":[121.1377,-29.6781]},"properties":{"id":"ga.erl.mineraloccurrenceview.1031909","source":"ozmin","title":"Lower Saprolite","detail":"Gold","first_seen":"2026-08-28","url":"https://services.ga.gov.au/gis/earthresource/wfs?service=WFS&version=2.0.0&request=GetFeature&typeNames=erl:MineralOccurrenceView&featureID=ga.erl.mineraloccurrenceview.1031909&outputFormat=application/json"}},{"type":"Feature","geometry":{"type":"Point","coordinates":[121.1377,-29.6781]},"properties":{"id":"ga.erl.mineraloccurrenceview.1031910","source":"ozmin","title":"Upper Saprolite","detail":"Gold","first_seen":"2026-08-28","url":"https://services.ga.gov.au/gis/earthresource/wfs?service=WFS&version=2.0.0&request=GetFeature&typeNames=erl:MineralOccurrenceView&featureID=ga.erl.mineraloccurrenceview.1031910&outputFormat=application/json"}},{"type":"Feature","geometry":{"type":"Point","coordinates":[116.1256,-22.8358]},"properties":{"id":"ga.erl.mineraloccurrenceview.1031911","source":"ozmin","title":"Mount Clement Antimony-Gold Project","detail":"Antimony, Lead, Silver, Gold","first_seen":"2026-08-26","url":"https://services.ga.gov.au/gis/earthresource/wfs?service=WFS&version=2.0.0&request=GetFeature&typeNames=erl:MineralOccurrenceView&featureID=ga.erl.mineraloccurrenceview.1031911&outputFormat=application/json"}},{"type":"Feature","geometry":{"type":"Point","coordinates":[116.1256,-22.8358]},"properties":{"id":"ga.erl.mineraloccurrenceview.1031912","source":"ozmin","title":"Eastern Hills","detail":"Antimony, Lead, Silver, Gold","first_seen":"2026-08-26","url":"https://services.ga.gov.au/gis/earthresource/wfs?service=WFS&version=2.0.0&request=GetFeature&typeNames=erl:MineralOccurrenceView&featureID=ga.erl.mineraloccurrenceview.1031912&outputFormat=application/json"}},{"type":"Feature","geometry":{"type":"Point","coordinates":[116.1256,-22.8358]},"properties":{"id":"ga.erl.mineraloccurrenceview.1031913","source":"ozmin","title":"Open Pit","detail":"Antimony, Lead, Silver, Gold","first_seen":"2026-08-26","url":"https://services.ga.gov.au/gis/earthresource/wfs?service=WFS&version=2.0.0&request=GetFeature&typeNames=erl:MineralOccurrenceView&featureID=ga.erl.mineraloccurrenceview.1031913&outputFormat=application/json"}},{"type":"Feature","geometry":{"type":"Point","coordinates":[121.138,-30.7956]},"properties":{"id":"ga.erl.mineraloccurrenceview.1031920","source":"ozmin","title":"Ada Ann","detail":"Gold","first_seen":"2026-08-31","url":"https://services.ga.gov.au/gis/earthresource/wfs?service=WFS&version=2.0.0&request=GetFeature&typeNames=erl:MineralOccurrenceView&featureID=ga.erl.mineraloccurrenceview.1031920&outputFormat=application/json"}},{"type":"Feature","geometry":{"type":"Point","coordinates":[120.6502,-30.1502]},"properties":{"id":"ga.erl.mineraloccurrenceview.1031953","source":"ozmin","title":"Round Dam","detail":"Gold","first_seen":"2026-08-26","url":"https://services.ga.gov.au/gis/earthresource/wfs?service=WFS&version=2.0.0&request=GetFeature&typeNames=erl:MineralOccurrenceView&featureID=ga.erl.mineraloccurrenceview.1031953&outputFormat=application/json"}},{"type":"Feature","geometry":{"type":"Point","coordinates":[122.6407,-21.7278]},"properties":{"id":"ga.erl.mineraloccurrenceview.1032364","source":"ozmin","title":"Link Zone","detail":"Copper, Gold","first_seen":"2026-08-31","url":"https://services.ga.gov.au/gis/earthresource/wfs?service=WFS&version=2.0.0&request=GetFeature&typeNames=erl:MineralOccurrenceView&featureID=ga.erl.mineraloccurrenceview.1032364&outputFormat=application/json"}},{"type":"Feature","geometry":{"type":"Point","coordinates":[117.2653,-27.8427]},"properties":{"id":"ga.erl.mineraloccurrenceview.1041829","source":"ozmin","title":"Never Never UG","detail":"Gold","first_seen":"2026-08-31","url":"https://services.ga.gov.au/gis/earthresource/wfs?service=WFS&version=2.0.0&request=GetFeature&typeNames=erl:MineralOccurrenceView&featureID=ga.erl.mineraloccurrenceview.1041829&outputFormat=application/json"}},{"type":"Feature","geometry":{"type":"Point","coordinates":[117.2652,-27.8462]},"properties":{"id":"ga.erl.mineraloccurrenceview.1041831","source":"ozmin","title":"Gilbey's UG","detail":"Gold","first_seen":"2026-08-31","url":"https://services.ga.gov.au/gis/earthresource/wfs?service=WFS&version=2.0.0&request=GetFeature&typeNames=erl:MineralOccurrenceView&featureID=ga.erl.mineraloccurrenceview.1041831&outputFormat=application/json"}},{"type":"Feature","geometry":{"type":"Point","coordinates":[118.0436,-27.5401]},"properties":{"id":"ga.erl.mineraloccurrenceview.1096605","source":"ozmin","title":"Comet Gold Project","detail":"Gold","first_seen":"2026-08-10","url":"https://services.ga.gov.au/gis/earthresource/wfs?service=WFS&version=2.0.0&request=GetFeature&typeNames=erl:MineralOccurrenceView&featureID=ga.erl.mineraloccurrenceview.1096605&outputFormat=application/json"}},{"type":"Feature","geometry":{"type":"Point","coordinates":[118.0436,-27.5401]},"properties":{"id":"ga.erl.mineraloccurrenceview.1096606","source":"ozmin","title":"Comet","detail":"Gold","first_seen":"2026-08-10","url":"https://services.ga.gov.au/gis/earthresource/wfs?service=WFS&version=2.0.0&request=GetFeature&typeNames=erl:MineralOccurrenceView&featureID=ga.erl.mineraloccurrenceview.1096606&outputFormat=application/json"}},{"type":"Feature","geometry":{"type":"Point","coordinates":[118.0436,-27.5401]},"properties":{"id":"ga.erl.mineraloccurrenceview.1096607","source":"ozmin","title":"Comet UG","detail":"Gold","first_seen":"2026-08-10","url":"https://services.ga.gov.au/gis/earthresource/wfs?service=WFS&version=2.0.0&request=GetFeature&typeNames=erl:MineralOccurrenceView&featureID=ga.erl.mineraloccurrenceview.1096607&outputFormat=application/json"}},{"type":"Feature","geometry":{"type":"Point","coordinates":[118.0469,-27.5345]},"properties":{"id":"ga.erl.mineraloccurrenceview.1096608","source":"ozmin","title":"Comet North","detail":"Gold","first_seen":"2026-08-10","url":"https://services.ga.gov.au/gis/earthresource/wfs?service=WFS&version=2.0.0&request=GetFeature&typeNames=erl:MineralOccurrenceView&featureID=ga.erl.mineraloccurrenceview.1096608&outputFormat=application/json"}},{"type":"Feature","geometry":{"type":"Point","coordinates":[118.0469,-27.5345]},"properties":{"id":"ga.erl.mineraloccurrenceview.1096609","source":"ozmin","title":"Comet North OP","detail":"Gold","first_seen":"2026-08-11","url":"https://services.ga.gov.au/gis/earthresource/wfs?service=WFS&version=2.0.0&request=GetFeature&typeNames=erl:MineralOccurrenceView&featureID=ga.erl.mineraloccurrenceview.1096609&outputFormat=application/json"}},{"type":"Feature","geometry":{"type":"Point","coordinates":[118.0469,-27.5345]},"properties":{"id":"ga.erl.mineraloccurrenceview.1096610","source":"ozmin","title":"Come North UG","detail":"Gold","first_seen":"2026-08-10","url":"https://services.ga.gov.au/gis/earthresource/wfs?service=WFS&version=2.0.0&request=GetFeature&typeNames=erl:MineralOccurrenceView&featureID=ga.erl.mineraloccurrenceview.1096610&outputFormat=application/json"}},{"type":"Feature","geometry":{"type":"Point","coordinates":[118.0402,-27.5403]},"properties":{"id":"ga.erl.mineraloccurrenceview.1096611","source":"ozmin","title":"Pinnacles","detail":"Gold","first_seen":"2026-08-10","url":"https://services.ga.gov.au/gis/earthresource/wfs?service=WFS&version=2.0.0&request=GetFeature&typeNames=erl:MineralOccurrenceView&featureID=ga.erl.mineraloccurrenceview.1096611&outputFormat=application/json"}},{"type":"Feature","geometry":{"type":"Point","coordinates":[118.0402,-27.5403]},"properties":{"id":"ga.erl.mineraloccurrenceview.1096612","source":"ozmin","title":"Pinncacles UG","detail":"Gold","first_seen":"2026-08-10","url":"https://services.ga.gov.au/gis/earthresource/wfs?service=WFS&version=2.0.0&request=GetFeature&typeNames=erl:MineralOccurrenceView&featureID=ga.erl.mineraloccurrenceview.1096612&outputFormat=application/json"}},{"type":"Feature","geometry":{"type":"Point","coordinates":[118.0249,-27.5645]},"properties":{"id":"ga.erl.mineraloccurrenceview.1096613","source":"ozmin","title":"Venus/Mercury","detail":"Gold","first_seen":"2026-08-11","url":"https://services.ga.gov.au/gis/earthresource/wfs?service=WFS&version=2.0.0&request=GetFeature&typeNames=erl:MineralOccurrenceView&featureID=ga.erl.mineraloccurrenceview.1096613&outputFormat=application/json"}},{"type":"Feature","geometry":{"type":"Point","coordinates":[118.0249,-27.5645]},"properties":{"id":"ga.erl.mineraloccurrenceview.1096614","source":"ozmin","title":"Venus/Mercury OP","detail":"Gold","first_seen":"2026-08-11","url":"https://services.ga.gov.au/gis/earthresource/wfs?service=WFS&version=2.0.0&request=GetFeature&typeNames=erl:MineralOccurrenceView&featureID=ga.erl.mineraloccurrenceview.1096614&outputFormat=application/json"}},{"type":"Feature","geometry":{"type":"Point","coordinates":[118.3465,-27.0894]},"properties":{"id":"ga.erl.mineraloccurrenceview.1100716","source":"ozmin","title":"Reedy Gold Project","detail":"Gold","first_seen":"2026-08-13","url":"https://services.ga.gov.au/gis/earthresource/wfs?service=WFS&version=2.0.0&request=GetFeature&typeNames=erl:MineralOccurrenceView&featureID=ga.erl.mineraloccurrenceview.1100716&outputFormat=application/json"}},{"type":"Feature","geometry":{"type":"Point","coordinates":[118.2885,-27.0408]},"properties":{"id":"ga.erl.mineraloccurrenceview.1100717","source":"ozmin","title":"Boomerang-Kurara","detail":"Gold","first_seen":"2026-08-13","url":"https://services.ga.gov.au/gis/earthresource/wfs?service=WFS&version=2.0.0&request=GetFeature&typeNames=erl:MineralOccurrenceView&featureID=ga.erl.mineraloccurrenceview.1100717&outputFormat=application/json"}},{"type":"Feature","geometry":{"type":"Point","coordinates":[118.2885,-27.0408]},"properties":{"id":"ga.erl.mineraloccurrenceview.1100718","source":"ozmin","title":"Boomerang-Kurara OP","detail":"Gold","first_seen":"2026-08-13","url":"https://services.ga.gov.au/gis/earthresource/wfs?service=WFS&version=2.0.0&request=GetFeature&typeNames=erl:MineralOccurrenceView&featureID=ga.erl.mineraloccurrenceview.1100718&outputFormat=application/json"}},{"type":"Feature","geometry":{"type":"Point","coordinates":[118.2885,-27.0408]},"properties":{"id":"ga.erl.mineraloccurrenceview.1100719","source":"ozmin","title":"Boomerang-Kurara UG","detail":"Gold","first_seen":"2026-08-13","url":"https://services.ga.gov.au/gis/earthresource/wfs?service=WFS&version=2.0.0&request=GetFeature&typeNames=erl:MineralOccurrenceView&featureID=ga.erl.mineraloccurrenceview.1100719&outputFormat=application/json"}},{"type":"Feature","geometry":{"type":"Point","coordinates":[118.2873,-27.0867]},"properties":{"id":"ga.erl.mineraloccurrenceview.1100720","source":"ozmin","title":"Callisto","detail":"Gold","first_seen":"2026-08-13","url":"https://services.ga.gov.au/gis/earthresource/wfs?service=WFS&version=2.0.0&request=GetFeature&typeNames=erl:MineralOccurrenceView&featureID=ga.erl.mineraloccurrenceview.1100720&outputFormat=application/json"}},{"type":"Feature","geometry":{"type":"Point","coordinates":[118.2873,-27.0867]},"properties":{"id":"ga.erl.mineraloccurrenceview.1100721","source":"ozmin","title":"Callisto OP","detail":"Gold","first_seen":"2026-08-13","url":"https://services.ga.gov.au/gis/earthresource/wfs?service=WFS&version=2.0.0&request=GetFeature&typeNames=erl:MineralOccurrenceView&featureID=ga.erl.mineraloccurrenceview.1100721&outputFormat=application/json"}},{"type":"Feature","geometry":{"type":"Point","coordinates":[118.2792,-27.0977]},"properties":{"id":"ga.erl.mineraloccurrenceview.1100722","source":"ozmin","title":"Jack Ryan","detail":"Gold","first_seen":"2026-08-13","url":"https://services.ga.gov.au/gis/earthresource/wfs?service=WFS&version=2.0.0&request=GetFeature&typeNames=erl:MineralOccurrenceView&featureID=ga.erl.mineraloccurrenceview.1100722&outputFormat=application/json"}},{"type":"Feature","geometry":{"type":"Point","coordinates":[118.2792,-27.0977]},"properties":{"id":"ga.erl.mineraloccurrenceview.1100723","source":"ozmin","title":"Jack Ryan UG","detail":"Gold","first_seen":"2026-08-13","url":"https://services.ga.gov.au/gis/earthresource/wfs?service=WFS&version=2.0.0&request=GetFeature&typeNames=erl:MineralOccurrenceView&featureID=ga.erl.mineraloccurrenceview.1100723&outputFormat=application/json"}},{"type":"Feature","geometry":{"type":"Point","coordinates":[118.2797,-27.0955]},"properties":{"id":"ga.erl.mineraloccurrenceview.1100724","source":"ozmin","title":"RL9","detail":"Gold","first_seen":"2026-08-13","url":"https://services.ga.gov.au/gis/earthresource/wfs?service=WFS&version=2.0.0&request=GetFeature&typeNames=erl:MineralOccurrenceView&featureID=ga.erl.mineraloccurrenceview.1100724&outputFormat=application/json"}},{"type":"Feature","geometry":{"type":"Point","coordinates":[118.2797,-27.0955]},"properties":{"id":"ga.erl.mineraloccurrenceview.1100725","source":"ozmin","title":"RL9 OP","detail":"Gold","first_seen":"2026-08-13","url":"https://services.ga.gov.au/gis/earthresource/wfs?service=WFS&version=2.0.0&request=GetFeature&typeNames=erl:MineralOccurrenceView&featureID=ga.erl.mineraloccurrenceview.1100725&outputFormat=application/json"}},{"type":"Feature","geometry":{"type":"Point","coordinates":[118.2654,-27.1127]},"properties":{"id":"ga.erl.mineraloccurrenceview.1100726","source":"ozmin","title":"Missing Link","detail":"Gold","first_seen":"2026-08-13","url":"https://services.ga.gov.au/gis/earthresource/wfs?service=WFS&version=2.0.0&request=GetFeature&typeNames=erl:MineralOccurrenceView&featureID=ga.erl.mineraloccurrenceview.1100726&outputFormat=application/json"}},{"type":"Feature","geometry":{"type":"Point","coordinates":[118.2654,-27.1127]},"properties":{"id":"ga.erl.mineraloccurrenceview.1100727","source":"ozmin","title":"Missing Link OP","detail":"Gold","first_seen":"2026-08-13","url":"https://services.ga.gov.au/gis/earthresource/wfs?service=WFS&version=2.0.0&request=GetFeature&typeNames=erl:MineralOccurrenceView&featureID=ga.erl.mineraloccurrenceview.1100727&outputFormat=application/json"}},{"type":"Feature","geometry":{"type":"Point","coordinates":[118.2702,-27.1228]},"properties":{"id":"ga.erl.mineraloccurrenceview.1100728","source":"ozmin","title":"Rand","detail":"Gold","first_seen":"2026-08-13","url":"https://services.ga.gov.au/gis/earthresource/wfs?service=WFS&version=2.0.0&request=GetFeature&typeNames=erl:MineralOccurrenceView&featureID=ga.erl.mineraloccurrenceview.1100728&outputFormat=application/json"}},{"type":"Feature","geometry":{"type":"Point","coordinates":[118.2702,-27.1228]},"properties":{"id":"ga.erl.mineraloccurrenceview.1100729","source":"ozmin","title":"Rand OP","detail":"Gold","first_seen":"2026-08-13","url":"https://services.ga.gov.au/gis/earthresource/wfs?service=WFS&version=2.0.0&request=GetFeature&typeNames=erl:MineralOccurrenceView&featureID=ga.erl.mineraloccurrenceview.1100729&outputFormat=application/json"}},{"type":"Feature","geometry":{"type":"Point","coordinates":[118.2702,-27.1228]},"properties":{"id":"ga.erl.mineraloccurrenceview.1100730","source":"ozmin","title":"Rand UG","detail":"Gold","first_seen":"2026-08-13","url":"https://services.ga.gov.au/gis/earthresource/wfs?service=WFS&version=2.0.0&request=GetFeature&typeNames=erl:MineralOccurrenceView&featureID=ga.erl.mineraloccurrenceview.1100730&outputFormat=application/json"}},{"type":"Feature","geometry":{"type":"Point","coordinates":[118.2669,-27.138]},"properties":{"id":"ga.erl.mineraloccurrenceview.1100731","source":"ozmin","title":"South Emu","detail":"Gold","first_seen":"2026-08-13","url":"https://services.ga.gov.au/gis/earthresource/wfs?service=WFS&version=2.0.0&request=GetFeature&typeNames=erl:MineralOccurrenceView&featureID=ga.erl.mineraloccurrenceview.1100731&outputFormat=application/json"}},{"type":"Feature","geometry":{"type":"Point","coordinates":[118.2669,-27.138]},"properties":{"id":"ga.erl.mineraloccurrenceview.1100732","source":"ozmin","title":"South Emu UG","detail":"Gold","first_seen":"2026-08-13","url":"https://services.ga.gov.au/gis/earthresource/wfs?service=WFS&version=2.0.0&request=GetFeature&typeNames=erl:MineralOccurrenceView&featureID=ga.erl.mineraloccurrenceview.1100732&outputFormat=application/json"}},{"type":"Feature","geometry":{"type":"Point","coordinates":[118.2677,-27.1333]},"properties":{"id":"ga.erl.mineraloccurrenceview.1100733","source":"ozmin","title":"Triton","detail":"Gold","first_seen":"2026-08-13","url":"https://services.ga.gov.au/gis/earthresource/wfs?service=WFS&version=2.0.0&request=GetFeature&typeNames=erl:MineralOccurrenceView&featureID=ga.erl.mineraloccurrenceview.1100733&outputFormat=application/json"}},{"type":"Feature","geometry":{"type":"Point","coordinates":[118.2677,-27.1333]},"properties":{"id":"ga.erl.mineraloccurrenceview.1100734","source":"ozmin","title":"Triton UG","detail":"Gold","first_seen":"2026-08-13","url":"https://services.ga.gov.au/gis/earthresource/wfs?service=WFS&version=2.0.0&request=GetFeature&typeNames=erl:MineralOccurrenceView&featureID=ga.erl.mineraloccurrenceview.1100734&outputFormat=application/json"}},{"type":"Feature","geometry":{"type":"Point","coordinates":[118.3604,-27.0507]},"properties":{"id":"ga.erl.mineraloccurrenceview.1100735","source":"ozmin","title":"Thompsons Bore","detail":"Gold","first_seen":"2026-08-13","url":"https://services.ga.gov.au/gis/earthresource/wfs?service=WFS&version=2.0.0&request=GetFeature&typeNames=erl:MineralOccurrenceView&featureID=ga.erl.mineraloccurrenceview.1100735&outputFormat=application/json"}},{"type":"Feature","geometry":{"type":"Point","coordinates":[118.3604,-27.0507]},"properties":{"id":"ga.erl.mineraloccurrenceview.1100736","source":"ozmin","title":"Thompsons Bore OP","detail":"Gold","first_seen":"2026-08-13","url":"https://services.ga.gov.au/gis/earthresource/wfs?service=WFS&version=2.0.0&request=GetFeature&typeNames=erl:MineralOccurrenceView&featureID=ga.erl.mineraloccurrenceview.1100736&outputFormat=application/json"}},{"type":"Feature","geometry":{"type":"Point","coordinates":[118.3516,-27.0776]},"properties":{"id":"ga.erl.mineraloccurrenceview.1100737","source":"ozmin","title":"West Zone","detail":"Gold","first_seen":"2026-08-13","url":"https://services.ga.gov.au/gis/earthresource/wfs?service=WFS&version=2.0.0&request=GetFeature&typeNames=erl:MineralOccurrenceView&featureID=ga.erl.mineraloccurrenceview.1100737&outputFormat=application/json"}},{"type":"Feature","geometry":{"type":"Point","coordinates":[118.3516,-27.0776]},"properties":{"id":"ga.erl.mineraloccurrenceview.1100738","source":"ozmin","title":"West Zone OP","detail":"Gold","first_seen":"2026-08-13","url":"https://services.ga.gov.au/gis/earthresource/wfs?service=WFS&version=2.0.0&request=GetFeature&typeNames=erl:MineralOccurrenceView&featureID=ga.erl.mineraloccurrenceview.1100738&outputFormat=application/json"}},{"type":"Feature","geometry":{"type":"Point","coordinates":[118.3465,-27.0894]},"properties":{"id":"ga.erl.mineraloccurrenceview.1100739","source":"ozmin","title":"Cullculli","detail":"Gold","first_seen":"2026-08-13","url":"https://services.ga.gov.au/gis/earthresource/wfs?service=WFS&version=2.0.0&request=GetFeature&typeNames=erl:MineralOccurrenceView&featureID=ga.erl.mineraloccurrenceview.1100739&outputFormat=application/json"}},{"type":"Feature","geometry":{"type":"Point","coordinates":[118.3465,-27.0894]},"properties":{"id":"ga.erl.mineraloccurrenceview.1100740","source":"ozmin","title":"Cullculli OP","detail":"Gold","first_seen":"2026-08-13","url":"https://services.ga.gov.au/gis/earthresource/wfs?service=WFS&version=2.0.0&request=GetFeature&typeNames=erl:MineralOccurrenceView&featureID=ga.erl.mineraloccurrenceview.1100740&outputFormat=application/json"}},{"type":"Feature","geometry":{"type":"Point","coordinates":[118.3456,-27.0934]},"properties":{"id":"ga.erl.mineraloccurrenceview.1100741","source":"ozmin","title":"Midway","detail":"Gold","first_seen":"2026-08-13","url":"https://services.ga.gov.au/gis/earthresource/wfs?service=WFS&version=2.0.0&request=GetFeature&typeNames=erl:MineralOccurrenceView&featureID=ga.erl.mineraloccurrenceview.1100741&outputFormat=application/json"}},{"type":"Feature","geometry":{"type":"Point","coordinates":[118.3456,-27.0934]},"properties":{"id":"ga.erl.mineraloccurrenceview.1100742","source":"ozmin","title":"Midway OP","detail":"Gold","first_seen":"2026-08-13","url":"https://services.ga.gov.au/gis/earthresource/wfs?service=WFS&version=2.0.0&request=GetFeature&typeNames=erl:MineralOccurrenceView&featureID=ga.erl.mineraloccurrenceview.1100742&outputFormat=application/json"}},{"type":"Feature","geometry":{"type":"Point","coordinates":[118.3416,-27.1023]},"properties":{"id":"ga.erl.mineraloccurrenceview.1100743","source":"ozmin","title":"Turn of the Tide","detail":"Gold","first_seen":"2026-08-13","url":"https://services.ga.gov.au/gis/earthresource/wfs?service=WFS&version=2.0.0&request=GetFeature&typeNames=erl:MineralOccurrenceView&featureID=ga.erl.mineraloccurrenceview.1100743&outputFormat=application/json"}},{"type":"Feature","geometry":{"type":"Point","coordinates":[118.3416,-27.1023]},"properties":{"id":"ga.erl.mineraloccurrenceview.1100744","source":"ozmin","title":"Turn of the Tide OP","detail":"Gold","first_seen":"2026-08-13","url":"https://services.ga.gov.au/gis/earthresource/wfs?service=WFS&version=2.0.0&request=GetFeature&typeNames=erl:MineralOccurrenceView&featureID=ga.erl.mineraloccurrenceview.1100744&outputFormat=application/json"}},{"type":"Feature","geometry":{"type":"Point","coordinates":[119.5775,-31.6566]},"properties":{"id":"ga.erl.mineraloccurrenceview.1100752","source":"ozmin","title":"Parker Range","detail":"Gold","first_seen":"2026-08-14","url":"https://services.ga.gov.au/gis/earthresource/wfs?service=WFS&version=2.0.0&request=GetFeature&typeNames=erl:MineralOccurrenceView&featureID=ga.erl.mineraloccurrenceview.1100752&outputFormat=application/json"}},{"type":"Feature","geometry":{"type":"Point","coordinates":[139.8137,-21.1702]},"properties":{"id":"ga.erl.mineraloccurrenceview.1112473","source":"ozmin","title":"Mount Hope Central","detail":"Copper, Gold","first_seen":"2026-08-25","url":"https://services.ga.gov.au/gis/earthresource/wfs?service=WFS&version=2.0.0&request=GetFeature&typeNames=erl:MineralOccurrenceView&featureID=ga.erl.mineraloccurrenceview.1112473&outputFormat=application/json"}},{"type":"Feature","geometry":{"type":"Point","coordinates":[139.8149,-21.1641]},"properties":{"id":"ga.erl.mineraloccurrenceview.1112474","source":"ozmin","title":"Mount Hope North","detail":"Copper, Gold","first_seen":"2026-08-25","url":"https://services.ga.gov.au/gis/earthresource/wfs?service=WFS&version=2.0.0&request=GetFeature&typeNames=erl:MineralOccurrenceView&featureID=ga.erl.mineraloccurrenceview.1112474&outputFormat=application/json"}},{"type":"Feature","geometry":{"type":"Point","coordinates":[139.8132,-21.1765]},"properties":{"id":"ga.erl.mineraloccurrenceview.1112475","source":"ozmin","title":"South Hope","detail":"Copper, Gold","first_seen":"2026-08-25","url":"https://services.ga.gov.au/gis/earthresource/wfs?service=WFS&version=2.0.0&request=GetFeature&typeNames=erl:MineralOccurrenceView&featureID=ga.erl.mineraloccurrenceview.1112475&outputFormat=application/json"}},{"type":"Feature","geometry":{"type":"Point","coordinates":[139.859,-21.1908]},"properties":{"id":"ga.erl.mineraloccurrenceview.1112476","source":"ozmin","title":"Mohawk","detail":"Copper, (Gold)","first_seen":"2026-08-26","url":"https://services.ga.gov.au/gis/earthresource/wfs?service=WFS&version=2.0.0&request=GetFeature&typeNames=erl:MineralOccurrenceView&featureID=ga.erl.mineraloccurrenceview.1112476&outputFormat=application/json"}},{"type":"Feature","geometry":{"type":"Point","coordinates":[139.859,-21.1908]},"properties":{"id":"ga.erl.mineraloccurrenceview.1112477","source":"ozmin","title":"Mohawk","detail":"Copper, (Gold)","first_seen":"2026-08-26","url":"https://services.ga.gov.au/gis/earthresource/wfs?service=WFS&version=2.0.0&request=GetFeature&typeNames=erl:MineralOccurrenceView&featureID=ga.erl.mineraloccurrenceview.1112477&outputFormat=application/json"}},{"type":"Feature","geometry":{"type":"Point","coordinates":[119.0746,-27.3678]},"properties":{"id":"ga.erl.mineraloccurrenceview.1112478","source":"ozmin","title":"Barrambie","detail":"Gold, Vanadium pentoxide, Titanium dioxide, (Iron, Magnetite, Hematite)","first_seen":"2026-08-26","url":"https://services.ga.gov.au/gis/earthresource/wfs?service=WFS&version=2.0.0&request=GetFeature&typeNames=erl:MineralOccurrenceView&featureID=ga.erl.mineraloccurrenceview.1112478&outputFormat=application/json"}},{"type":"Feature","geometry":{"type":"Point","coordinates":[119.0746,-27.3678]},"properties":{"id":"ga.erl.mineraloccurrenceview.1112479","source":"ozmin","title":"Ironclad","detail":"Gold","first_seen":"2026-08-26","url":"https://services.ga.gov.au/gis/earthresource/wfs?service=WFS&version=2.0.0&request=GetFeature&typeNames=erl:MineralOccurrenceView&featureID=ga.erl.mineraloccurrenceview.1112479&outputFormat=application/json"}},{"type":"Feature","geometry":{"type":"Point","coordinates":[119.0746,-27.3678]},"properties":{"id":"ga.erl.mineraloccurrenceview.1112480","source":"ozmin","title":"Ironclad Higher-grade Domain","detail":"Gold","first_seen":"2026-08-26","url":"https://services.ga.gov.au/gis/earthresource/wfs?service=WFS&version=2.0.0&request=GetFeature&typeNames=erl:MineralOccurrenceView&featureID=ga.erl.mineraloccurrenceview.1112480&outputFormat=application/json"}},{"type":"Feature","geometry":{"type":"Point","coordinates":[119.0746,-27.3678]},"properties":{"id":"ga.erl.mineraloccurrenceview.1112481","source":"ozmin","title":"Ironclad Lower-grade Domain","detail":"Gold","first_seen":"2026-08-26","url":"https://services.ga.gov.au/gis/earthresource/wfs?service=WFS&version=2.0.0&request=GetFeature&typeNames=erl:MineralOccurrenceView&featureID=ga.erl.mineraloccurrenceview.1112481&outputFormat=application/json"}},{"type":"Feature","geometry":{"type":"Point","coordinates":[120.6545,-30.1837]},"properties":{"id":"ga.erl.mineraloccurrenceview.1112482","source":"ozmin","title":"Salmon Gums Area","detail":"Gold","first_seen":"2026-08-26","url":"https://services.ga.gov.au/gis/earthresource/wfs?service=WFS&version=2.0.0&request=GetFeature&typeNames=erl:MineralOccurrenceView&featureID=ga.erl.mineraloccurrenceview.1112482&outputFormat=application/json"}},{"type":"Feature","geometry":{"type":"Point","coordinates":[120.6545,-30.1837]},"properties":{"id":"ga.erl.mineraloccurrenceview.1112483","source":"ozmin","title":"Salmon Gums Area","detail":"Gold","first_seen":"2026-08-26","url":"https://services.ga.gov.au/gis/earthresource/wfs?service=WFS&version=2.0.0&request=GetFeature&typeNames=erl:MineralOccurrenceView&featureID=ga.erl.mineraloccurrenceview.1112483&outputFormat=application/json"}},{"type":"Feature","geometry":{"type":"Point","coordinates":[120.6502,-30.1502]},"properties":{"id":"ga.erl.mineraloccurrenceview.1112484","source":"ozmin","title":"Walhalla Area","detail":"Gold","first_seen":"2026-08-28","url":"https://services.ga.gov.au/gis/earthresource/wfs?service=WFS&version=2.0.0&request=GetFeature&typeNames=erl:MineralOccurrenceView&featureID=ga.erl.mineraloccurrenceview.1112484&outputFormat=application/json"}},{"type":"Feature","geometry":{"type":"Point","coordinates":[120.6502,-30.1502]},"properties":{"id":"ga.erl.mineraloccurrenceview.1112485","source":"ozmin","title":"Walhalla Area","detail":"Gold","first_seen":"2026-08-28","url":"https://services.ga.gov.au/gis/earthresource/wfs?service=WFS&version=2.0.0&request=GetFeature&typeNames=erl:MineralOccurrenceView&featureID=ga.erl.mineraloccurrenceview.1112485&outputFormat=application/json"}},{"type":"Feature","geometry":{"type":"Point","coordinates":[121.7711,-31.3607]},"properties":{"id":"ga.erl.mineraloccurrenceview.1112486","source":"ozmin","title":"Hustler","detail":"Gold","first_seen":"2026-08-28","url":"https://services.ga.gov.au/gis/earthresource/wfs?service=WFS&version=2.0.0&request=GetFeature&typeNames=erl:MineralOccurrenceView&featureID=ga.erl.mineraloccurrenceview.1112486&outputFormat=application/json"}},{"type":"Feature","geometry":{"type":"Point","coordinates":[121.7711,-31.3607]},"properties":{"id":"ga.erl.mineraloccurrenceview.1112487","source":"ozmin","title":"Hustler Upper","detail":"Gold","first_seen":"2026-08-28","url":"https://services.ga.gov.au/gis/earthresource/wfs?service=WFS&version=2.0.0&request=GetFeature&typeNames=erl:MineralOccurrenceView&featureID=ga.erl.mineraloccurrenceview.1112487&outputFormat=application/json"}},{"type":"Feature","geometry":{"type":"Point","coordinates":[121.7711,-31.3607]},"properties":{"id":"ga.erl.mineraloccurrenceview.1112488","source":"ozmin","title":"Hustler Lower","detail":"Gold","first_seen":"2026-08-28","url":"https://services.ga.gov.au/gis/earthresource/wfs?service=WFS&version=2.0.0&request=GetFeature&typeNames=erl:MineralOccurrenceView&featureID=ga.erl.mineraloccurrenceview.1112488&outputFormat=application/json"}},{"type":"Feature","geometry":{"type":"Point","coordinates":[121.47,-28.93]},"properties":{"id":"ga.erl.mineraloccurrenceview.1112489","source":"ozmin","title":"Mt Malcolm Gold Project","detail":"Gold","first_seen":"2026-08-28","url":"https://services.ga.gov.au/gis/earthresource/wfs?service=WFS&version=2.0.0&request=GetFeature&typeNames=erl:MineralOccurrenceView&featureID=ga.erl.mineraloccurrenceview.1112489&outputFormat=application/json"}},{"type":"Feature","geometry":{"type":"Point","coordinates":[121.5077,-28.9563]},"properties":{"id":"ga.erl.mineraloccurrenceview.1112491","source":"ozmin","title":"Dumbarton","detail":"Gold","first_seen":"2026-08-28","url":"https://services.ga.gov.au/gis/earthresource/wfs?service=WFS&version=2.0.0&request=GetFeature&typeNames=erl:MineralOccurrenceView&featureID=ga.erl.mineraloccurrenceview.1112491&outputFormat=application/json"}},{"type":"Feature","geometry":{"type":"Point","coordinates":[121.5077,-28.9563]},"properties":{"id":"ga.erl.mineraloccurrenceview.1112492","source":"ozmin","title":"Dumbarton","detail":"Gold","first_seen":"2026-08-28","url":"https://services.ga.gov.au/gis/earthresource/wfs?service=WFS&version=2.0.0&request=GetFeature&typeNames=erl:MineralOccurrenceView&featureID=ga.erl.mineraloccurrenceview.1112492&outputFormat=application/json"}},{"type":"Feature","geometry":{"type":"Point","coordinates":[121.4508,-28.8915]},"properties":{"id":"ga.erl.mineraloccurrenceview.1112493","source":"ozmin","title":"Golden Crown","detail":"Gold","first_seen":"2026-08-28","url":"https://services.ga.gov.au/gis/earthresource/wfs?service=WFS&version=2.0.0&request=GetFeature&typeNames=erl:MineralOccurrenceView&featureID=ga.erl.mineraloccurrenceview.1112493&outputFormat=application/json"}},{"type":"Feature","geometry":{"type":"Point","coordinates":[121.4508,-28.8915]},"properties":{"id":"ga.erl.mineraloccurrenceview.1112494","source":"ozmin","title":"Golden Crown","detail":"Gold","first_seen":"2026-08-28","url":"https://services.ga.gov.au/gis/earthresource/wfs?service=WFS&version=2.0.0&request=GetFeature&typeNames=erl:MineralOccurrenceView&featureID=ga.erl.mineraloccurrenceview.1112494&outputFormat=application/json"}},{"type":"Feature","geometry":{"type":"Point","coordinates":[142.6124,-37.6078]},"properties":{"id":"ga.erl.mineraloccurrenceview.1112495","source":"ozmin","title":"Stavely Copper-Gold Project","detail":"Copper, Gold","first_seen":"2026-08-28","url":"https://services.ga.gov.au/gis/earthresource/wfs?service=WFS&version=2.0.0&request=GetFeature&typeNames=erl:MineralOccurrenceView&featureID=ga.erl.mineraloccurrenceview.1112495&outputFormat=application/json"}},{"type":"Feature","geometry":{"type":"Point","coordinates":[142.6124,-37.6078]},"properties":{"id":"ga.erl.mineraloccurrenceview.1112496","source":"ozmin","title":"Thursday's Gossan low-grade mineralisation","detail":"Copper, (Gold, Silver)","first_seen":"2026-08-28","url":"https://services.ga.gov.au/gis/earthresource/wfs?service=WFS&version=2.0.0&request=GetFeature&typeNames=erl:MineralOccurrenceView&featureID=ga.erl.mineraloccurrenceview.1112496&outputFormat=application/json"}},{"type":"Feature","geometry":{"type":"Point","coordinates":[121.9298,-30.8546]},"properties":{"id":"ga.erl.mineraloccurrenceview.1112497","source":"ozmin","title":"Majestic North Project","detail":"Gold","first_seen":"2026-08-28","url":"https://services.ga.gov.au/gis/earthresource/wfs?service=WFS&version=2.0.0&request=GetFeature&typeNames=erl:MineralOccurrenceView&featureID=ga.erl.mineraloccurrenceview.1112497&outputFormat=application/json"}},{"type":"Feature","geometry":{"type":"Point","coordinates":[121.9298,-30.8546]},"properties":{"id":"ga.erl.mineraloccurrenceview.1112498","source":"ozmin","title":"Majestic North (Western Lodes)","detail":"Gold","first_seen":"2026-08-28","url":"https://services.ga.gov.au/gis/earthresource/wfs?service=WFS&version=2.0.0&request=GetFeature&typeNames=erl:MineralOccurrenceView&featureID=ga.erl.mineraloccurrenceview.1112498&outputFormat=application/json"}},{"type":"Feature","geometry":{"type":"Point","coordinates":[121.9298,-30.8546]},"properties":{"id":"ga.erl.mineraloccurrenceview.1112499","source":"ozmin","title":"Majestic North (Western Lodes)","detail":"Gold","first_seen":"2026-08-28","url":"https://services.ga.gov.au/gis/earthresource/wfs?service=WFS&version=2.0.0&request=GetFeature&typeNames=erl:MineralOccurrenceView&featureID=ga.erl.mineraloccurrenceview.1112499&outputFormat=application/json"}},{"type":"Feature","geometry":{"type":"Point","coordinates":[122.2577,-21.3813]},"properties":{"id":"ga.erl.mineraloccurrenceview.1112500","source":"ozmin","title":"Minyari","detail":"Gold, Copper, Silver, Cobalt","first_seen":"2026-08-28","url":"https://services.ga.gov.au/gis/earthresource/wfs?service=WFS&version=2.0.0&request=GetFeature&typeNames=erl:MineralOccurrenceView&featureID=ga.erl.mineraloccurrenceview.1112500&outputFormat=application/json"}},{"type":"Feature","geometry":{"type":"Point","coordinates":[122.2543,-21.3903]},"properties":{"id":"ga.erl.mineraloccurrenceview.1112501","source":"ozmin","title":"WACA","detail":"Gold, Copper, Silver, Cobalt","first_seen":"2026-08-28","url":"https://services.ga.gov.au/gis/earthresource/wfs?service=WFS&version=2.0.0&request=GetFeature&typeNames=erl:MineralOccurrenceView&featureID=ga.erl.mineraloccurrenceview.1112501&outputFormat=application/json"}},{"type":"Feature","geometry":{"type":"Point","coordinates":[122.2663,-21.3975]},"properties":{"id":"ga.erl.mineraloccurrenceview.1112502","source":"ozmin","title":"GEO-01 Main Zone","detail":"Gold, Silver, Copper, Cobalt","first_seen":"2026-08-28","url":"https://services.ga.gov.au/gis/earthresource/wfs?service=WFS&version=2.0.0&request=GetFeature&typeNames=erl:MineralOccurrenceView&featureID=ga.erl.mineraloccurrenceview.1112502&outputFormat=application/json"}},{"type":"Feature","geometry":{"type":"Point","coordinates":[122.2525,-21.3834]},"properties":{"id":"ga.erl.mineraloccurrenceview.1112503","source":"ozmin","title":"Sundown","detail":"Gold, Silver, Copper, Cobalt","first_seen":"2026-08-28","url":"https://services.ga.gov.au/gis/earthresource/wfs?service=WFS&version=2.0.0&request=GetFeature&typeNames=erl:MineralOccurrenceView&featureID=ga.erl.mineraloccurrenceview.1112503&outputFormat=application/json"}},{"type":"Feature","geometry":{"type":"Point","coordinates":[122.252,-21.3762]},"properties":{"id":"ga.erl.mineraloccurrenceview.1112504","source":"ozmin","title":"Minyari North","detail":"Gold, Silver, Copper, Cobalt","first_seen":"2026-08-28","url":"https://services.ga.gov.au/gis/earthresource/wfs?service=WFS&version=2.0.0&request=GetFeature&typeNames=erl:MineralOccurrenceView&featureID=ga.erl.mineraloccurrenceview.1112504&outputFormat=application/json"}},{"type":"Feature","geometry":{"type":"Point","coordinates":[122.2519,-21.3904]},"properties":{"id":"ga.erl.mineraloccurrenceview.1112505","source":"ozmin","title":"WACA West","detail":"Gold, Silver, Copper, Cobalt","first_seen":"2026-08-28","url":"https://services.ga.gov.au/gis/earthresource/wfs?service=WFS&version=2.0.0&request=GetFeature&typeNames=erl:MineralOccurrenceView&featureID=ga.erl.mineraloccurrenceview.1112505&outputFormat=application/json"}},{"type":"Feature","geometry":{"type":"Point","coordinates":[122.1936,-21.0637]},"properties":{"id":"ga.erl.mineraloccurrenceview.1112506","source":"ozmin","title":"Reaper-Poblano-Serrano","detail":"Gold, (Silver, Copper)","first_seen":"2026-08-28","url":"https://services.ga.gov.au/gis/earthresource/wfs?service=WFS&version=2.0.0&request=GetFeature&typeNames=erl:MineralOccurrenceView&featureID=ga.erl.mineraloccurrenceview.1112506&outputFormat=application/json"}},{"type":"Feature","geometry":{"type":"Point","coordinates":[122.1936,-21.0637]},"properties":{"id":"ga.erl.mineraloccurrenceview.1112507","source":"ozmin","title":"Reaper-Poblano-Serrano","detail":"Gold, (Silver, Copper)","first_seen":"2026-08-28","url":"https://services.ga.gov.au/gis/earthresource/wfs?service=WFS&version=2.0.0&request=GetFeature&typeNames=erl:MineralOccurrenceView&featureID=ga.erl.mineraloccurrenceview.1112507&outputFormat=application/json"}},{"type":"Feature","geometry":{"type":"Point","coordinates":[117.6878,-29.2508]},"properties":{"id":"ga.erl.mineraloccurrenceview.1112508","source":"ozmin","title":"Murchison South","detail":"Gold","first_seen":"2026-08-31","url":"https://services.ga.gov.au/gis/earthresource/wfs?service=WFS&version=2.0.0&request=GetFeature&typeNames=erl:MineralOccurrenceView&featureID=ga.erl.mineraloccurrenceview.1112508&outputFormat=application/json"}},{"type":"Feature","geometry":{"type":"Point","coordinates":[117.6952,-29.2684]},"properties":{"id":"ga.erl.mineraloccurrenceview.1112509","source":"ozmin","title":"Pansy","detail":"Gold","first_seen":"2026-08-31","url":"https://services.ga.gov.au/gis/earthresource/wfs?service=WFS&version=2.0.0&request=GetFeature&typeNames=erl:MineralOccurrenceView&featureID=ga.erl.mineraloccurrenceview.1112509&outputFormat=application/json"}},{"type":"Feature","geometry":{"type":"Point","coordinates":[122.4654,-29.4395]},"properties":{"id":"ga.erl.mineraloccurrenceview.1112510","source":"ozmin","title":"Kangaroo Bore","detail":"Gold","first_seen":"2026-08-31","url":"https://services.ga.gov.au/gis/earthresource/wfs?service=WFS&version=2.0.0&request=GetFeature&typeNames=erl:MineralOccurrenceView&featureID=ga.erl.mineraloccurrenceview.1112510&outputFormat=application/json"}},{"type":"Feature","geometry":{"type":"Point","coordinates":[122.4654,-29.4395]},"properties":{"id":"ga.erl.mineraloccurrenceview.1112511","source":"ozmin","title":"Kangaroo Bore open pit","detail":"Gold","first_seen":"2026-08-31","url":"https://services.ga.gov.au/gis/earthresource/wfs?service=WFS&version=2.0.0&request=GetFeature&typeNames=erl:MineralOccurrenceView&featureID=ga.erl.mineraloccurrenceview.1112511&outputFormat=application/json"}},{"type":"Feature","geometry":{"type":"Point","coordinates":[122.4654,-29.4395]},"properties":{"id":"ga.erl.mineraloccurrenceview.1112512","source":"ozmin","title":"Kangaroo Bore underground","detail":"Gold","first_seen":"2026-08-31","url":"https://services.ga.gov.au/gis/earthresource/wfs?service=WFS&version=2.0.0&request=GetFeature&typeNames=erl:MineralOccurrenceView&featureID=ga.erl.mineraloccurrenceview.1112512&outputFormat=application/json"}},{"type":"Feature","geometry":{"type":"Point","coordinates":[122.4996,-29.4585]},"properties":{"id":"ga.erl.mineraloccurrenceview.1112513","source":"ozmin","title":"Blue Peter open pit","detail":"Gold","first_seen":"2026-08-31","url":"https://services.ga.gov.au/gis/earthresource/wfs?service=WFS&version=2.0.0&request=GetFeature&typeNames=erl:MineralOccurrenceView&featureID=ga.erl.mineraloccurrenceview.1112513&outputFormat=application/json"}},{"type":"Feature","geometry":{"type":"Point","coordinates":[122.4996,-29.4585]},"properties":{"id":"ga.erl.mineraloccurrenceview.1112514","source":"ozmin","title":"Blue Peter underground","detail":"Gold","first_seen":"2026-08-31","url":"https://services.ga.gov.au/gis/earthresource/wfs?service=WFS&version=2.0.0&request=GetFeature&typeNames=erl:MineralOccurrenceView&featureID=ga.erl.mineraloccurrenceview.1112514&outputFormat=application/json"}},{"type":"Feature","geometry":{"type":"Point","coordinates":[145.4712,-41.8652]},"properties":{"id":"ga.erl.mineraloccurrenceview.1112515","source":"ozmin","title":"Montezuma Silver-Antimony Project","detail":"Silver, Gold, Copper, Lead, Antimony, Tin","first_seen":"2026-08-31","url":"https://services.ga.gov.au/gis/earthresource/wfs?service=WFS&version=2.0.0&request=GetFeature&typeNames=erl:MineralOccurrenceView&featureID=ga.erl.mineraloccurrenceview.1112515&outputFormat=application/json"}},{"type":"Feature","geometry":{"type":"Point","coordinates":[145.4712,-41.8652]},"properties":{"id":"ga.erl.mineraloccurrenceview.1112516","source":"ozmin","title":"Montezuma","detail":"Silver, Antimony, Gold, Copper, Lead, Tin","first_seen":"2026-08-31","url":"https://services.ga.gov.au/gis/earthresource/wfs?service=WFS&version=2.0.0&request=GetFeature&typeNames=erl:MineralOccurrenceView&featureID=ga.erl.mineraloccurrenceview.1112516&outputFormat=application/json"}},{"type":"Feature","geometry":{"type":"Point","coordinates":[145.4712,-41.8652]},"properties":{"id":"ga.erl.mineraloccurrenceview.1112517","source":"ozmin","title":"Montezuma","detail":"Silver, Antimony, Gold, Copper, Lead, Tin","first_seen":"2026-08-31","url":"https://services.ga.gov.au/gis/earthresource/wfs?service=WFS&version=2.0.0&request=GetFeature&typeNames=erl:MineralOccurrenceView&featureID=ga.erl.mineraloccurrenceview.1112517&outputFormat=application/json"}},{"type":"Feature","geometry":{"type":"Point","coordinates":[117.1303,-27.5231]},"properties":{"id":"ga.erl.mineraloccurrenceview.1112518","source":"ozmin","title":"Western Queen","detail":"Gold, Tungsten","first_seen":"2026-08-31","url":"https://services.ga.gov.au/gis/earthresource/wfs?service=WFS&version=2.0.0&request=GetFeature&typeNames=erl:MineralOccurrenceView&featureID=ga.erl.mineraloccurrenceview.1112518&outputFormat=application/json"}},{"type":"Feature","geometry":{"type":"Point","coordinates":[117.1387,-27.5047]},"properties":{"id":"ga.erl.mineraloccurrenceview.1112519","source":"ozmin","title":"Cranes","detail":"Gold","first_seen":"2026-08-31","url":"https://services.ga.gov.au/gis/earthresource/wfs?service=WFS&version=2.0.0&request=GetFeature&typeNames=erl:MineralOccurrenceView&featureID=ga.erl.mineraloccurrenceview.1112519&outputFormat=application/json"}},{"type":"Feature","geometry":{"type":"Point","coordinates":[117.1303,-27.5231]},"properties":{"id":"ga.erl.mineraloccurrenceview.1112520","source":"ozmin","title":"Duke","detail":"Gold","first_seen":"2026-08-31","url":"https://services.ga.gov.au/gis/earthresource/wfs?service=WFS&version=2.0.0&request=GetFeature&typeNames=erl:MineralOccurrenceView&featureID=ga.erl.mineraloccurrenceview.1112520&outputFormat=application/json"}},{"type":"Feature","geometry":{"type":"Point","coordinates":[117.1277,-27.5279]},"properties":{"id":"ga.erl.mineraloccurrenceview.1112521","source":"ozmin","title":"Princess","detail":"Gold, Tungsten","first_seen":"2026-08-31","url":"https://services.ga.gov.au/gis/earthresource/wfs?service=WFS&version=2.0.0&request=GetFeature&typeNames=erl:MineralOccurrenceView&featureID=ga.erl.mineraloccurrenceview.1112521&outputFormat=application/json"}},{"type":"Feature","geometry":{"type":"Point","coordinates":[117.1254,-27.5326]},"properties":{"id":"ga.erl.mineraloccurrenceview.1112522","source":"ozmin","title":"Western Queen South","detail":"Gold, Tungsten","first_seen":"2026-08-31","url":"https://services.ga.gov.au/gis/earthresource/wfs?service=WFS&version=2.0.0&request=GetFeature&typeNames=erl:MineralOccurrenceView&featureID=ga.erl.mineraloccurrenceview.1112522&outputFormat=application/json"}},{"type":"Feature","geometry":{"type":"Point","coordinates":[117.2709,-27.8409]},"properties":{"id":"ga.erl.mineraloccurrenceview.1112523","source":"ozmin","title":"Never Never","detail":"Gold","first_seen":"2026-08-31","url":"https://services.ga.gov.au/gis/earthresource/wfs?service=WFS&version=2.0.0&request=GetFeature&typeNames=erl:MineralOccurrenceView&featureID=ga.erl.mineraloccurrenceview.1112523&outputFormat=application/json"}},{"type":"Feature","geometry":{"type":"Point","coordinates":[117.2637,-27.8543]},"properties":{"id":"ga.erl.mineraloccurrenceview.1112524","source":"ozmin","title":"Plymouth","detail":"Gold","first_seen":"2026-08-31","url":"https://services.ga.gov.au/gis/earthresource/wfs?service=WFS&version=2.0.0&request=GetFeature&typeNames=erl:MineralOccurrenceView&featureID=ga.erl.mineraloccurrenceview.1112524&outputFormat=application/json"}},{"type":"Feature","geometry":{"type":"Point","coordinates":[117.265,-27.8542]},"properties":{"id":"ga.erl.mineraloccurrenceview.1112525","source":"ozmin","title":"Sly Fox","detail":"Gold","first_seen":"2026-08-31","url":"https://services.ga.gov.au/gis/earthresource/wfs?service=WFS&version=2.0.0&request=GetFeature&typeNames=erl:MineralOccurrenceView&featureID=ga.erl.mineraloccurrenceview.1112525&outputFormat=application/json"}},{"type":"Feature","geometry":{"type":"Point","coordinates":[117.2269,-27.7957]},"properties":{"id":"ga.erl.mineraloccurrenceview.1112526","source":"ozmin","title":"Archie Rose","detail":"Gold","first_seen":"2026-08-31","url":"https://services.ga.gov.au/gis/earthresource/wfs?service=WFS&version=2.0.0&request=GetFeature&typeNames=erl:MineralOccurrenceView&featureID=ga.erl.mineraloccurrenceview.1112526&outputFormat=application/json"}},{"type":"Feature","geometry":{"type":"Point","coordinates":[122.7151,-30.5369]},"properties":{"id":"ga.erl.mineraloccurrenceview.1112527","source":"ozmin","title":"Rebecca-Roe Project","detail":"Gold, (Nickel, Copper)","first_seen":"2026-08-31","url":"https://services.ga.gov.au/gis/earthresource/wfs?service=WFS&version=2.0.0&request=GetFeature&typeNames=erl:MineralOccurrenceView&featureID=ga.erl.mineraloccurrenceview.1112527&outputFormat=application/json"}},{"type":"Feature","geometry":{"type":"Point","coordinates":[122.8421,-30.4095]},"properties":{"id":"ga.erl.mineraloccurrenceview.1112528","source":"ozmin","title":"Duke","detail":"Gold","first_seen":"2026-08-31","url":"https://services.ga.gov.au/gis/earthresource/wfs?service=WFS&version=2.0.0&request=GetFeature&typeNames=erl:MineralOccurrenceView&featureID=ga.erl.mineraloccurrenceview.1112528&outputFormat=application/json"}},{"type":"Feature","geometry":{"type":"Point","coordinates":[122.8416,-30.3961]},"properties":{"id":"ga.erl.mineraloccurrenceview.1112529","source":"ozmin","title":"Duchess","detail":"Gold","first_seen":"2026-08-31","url":"https://services.ga.gov.au/gis/earthresource/wfs?service=WFS&version=2.0.0&request=GetFeature&typeNames=erl:MineralOccurrenceView&featureID=ga.erl.mineraloccurrenceview.1112529&outputFormat=application/json"}},{"type":"Feature","geometry":{"type":"Point","coordinates":[122.8446,-30.3511]},"properties":{"id":"ga.erl.mineraloccurrenceview.1112530","source":"ozmin","title":"Cleo","detail":"Gold","first_seen":"2026-08-31","url":"https://services.ga.gov.au/gis/earthresource/wfs?service=WFS&version=2.0.0&request=GetFeature&typeNames=erl:MineralOccurrenceView&featureID=ga.erl.mineraloccurrenceview.1112530&outputFormat=application/json"}},{"type":"Feature","geometry":{"type":"Point","coordinates":[122.5679,-30.7051]},"properties":{"id":"ga.erl.mineraloccurrenceview.1112531","source":"ozmin","title":"Crescent-Kopai","detail":"Gold","first_seen":"2026-08-31","url":"https://services.ga.gov.au/gis/earthresource/wfs?service=WFS&version=2.0.0&request=GetFeature&typeNames=erl:MineralOccurrenceView&featureID=ga.erl.mineraloccurrenceview.1112531&outputFormat=application/json"}},{"type":"Feature","geometry":{"type":"Point","coordinates":[122.5785,-30.7421]},"properties":{"id":"ga.erl.mineraloccurrenceview.1112532","source":"ozmin","title":"Claypan","detail":"Gold","first_seen":"2026-08-31","url":"https://services.ga.gov.au/gis/earthresource/wfs?service=WFS&version=2.0.0&request=GetFeature&typeNames=erl:MineralOccurrenceView&featureID=ga.erl.mineraloccurrenceview.1112532&outputFormat=application/json"}},{"type":"Feature","geometry":{"type":"Point","coordinates":[120.2904,-21.8709]},"properties":{"id":"ga.erl.mineraloccurrenceview.1112536","source":"ozmin","title":"Hopetoun","detail":"Gold","first_seen":"2026-09-01","url":"https://services.ga.gov.au/gis/earthresource/wfs?service=WFS&version=2.0.0&request=GetFeature&typeNames=erl:MineralOccurrenceView&featureID=ga.erl.mineraloccurrenceview.1112536&outputFormat=application/json"}},{"type":"Feature","geometry":{"type":"Point","coordinates":[120.2904,-21.8709]},"properties":{"id":"ga.erl.mineraloccurrenceview.1112537","source":"ozmin","title":"Hopetoun","detail":"Gold","first_seen":"2026-09-01","url":"https://services.ga.gov.au/gis/earthresource/wfs?service=WFS&version=2.0.0&request=GetFeature&typeNames=erl:MineralOccurrenceView&featureID=ga.erl.mineraloccurrenceview.1112537&outputFormat=application/json"}},{"type":"Feature","geometry":{"type":"Point","coordinates":[120.2904,-21.8709]},"properties":{"id":"ga.erl.mineraloccurrenceview.1112538","source":"ozmin","title":"Hopetoun","detail":"Gold","first_seen":"2026-09-01","url":"https://services.ga.gov.au/gis/earthresource/wfs?service=WFS&version=2.0.0&request=GetFeature&typeNames=erl:MineralOccurrenceView&featureID=ga.erl.mineraloccurrenceview.1112538&outputFormat=application/json"}},{"type":"Feature","geometry":{"type":"Point","coordinates":[139.7798,-21.2515]},"properties":{"id":"ga.erl.mineraloccurrenceview.336656","source":"ozmin","title":"Burke And Wills","detail":"Copper, Gold","first_seen":"2026-08-25","url":"https://services.ga.gov.au/gis/earthresource/wfs?service=WFS&version=2.0.0&request=GetFeature&typeNames=erl:MineralOccurrenceView&featureID=ga.erl.mineraloccurrenceview.336656&outputFormat=application/json"}},{"type":"Feature","geometry":{"type":"Point","coordinates":[141.3276,-32.0529]},"properties":{"id":"ga.erl.mineraloccurrenceview.337709","source":"ozmin","title":"Pinnacles Combined","detail":"Lead, Gold, Silver, Zinc","first_seen":"2026-08-14","url":"https://services.ga.gov.au/gis/earthresource/wfs?service=WFS&version=2.0.0&request=GetFeature&typeNames=erl:MineralOccurrenceView&featureID=ga.erl.mineraloccurrenceview.337709&outputFormat=application/json"}},{"type":"Feature","geometry":{"type":"Point","coordinates":[152.2778,-26.2191]},"properties":{"id":"ga.erl.mineraloccurrenceview.339753","source":"ozmin","title":"Shamrock tailings","detail":"Gold","first_seen":"2026-08-14","url":"https://services.ga.gov.au/gis/earthresource/wfs?service=WFS&version=2.0.0&request=GetFeature&typeNames=erl:MineralOccurrenceView&featureID=ga.erl.mineraloccurrenceview.339753&outputFormat=application/json"}},{"type":"Feature","geometry":{"type":"Point","coordinates":[140.7986,-20.9805]},"properties":{"id":"ga.erl.mineraloccurrenceview.653276","source":"ozmin","title":"Artemis","detail":"Copper, Gold, (Lead-Zinc)","first_seen":"2026-09-01","url":"https://services.ga.gov.au/gis/earthresource/wfs?service=WFS&version=2.0.0&request=GetFeature&typeNames=erl:MineralOccurrenceView&featureID=ga.erl.mineraloccurrenceview.653276&outputFormat=application/json"}},{"type":"Feature","geometry":{"type":"Point","coordinates":[145.7074,-32.6414]},"properties":{"id":"ga.erl.mineraloccurrenceview.921132","source":"ozmin","title":"Wagga Tank-Southern Nights","detail":"Zinc, Lead, Copper, Gold, Silver","first_seen":"2026-08-12","url":"https://services.ga.gov.au/gis/earthresource/wfs?service=WFS&version=2.0.0&request=GetFeature&typeNames=erl:MineralOccurrenceView&featureID=ga.erl.mineraloccurrenceview.921132&outputFormat=application/json"}},{"type":"Feature","geometry":{"type":"Point","coordinates":[140.754,-20.8362]},"properties":{"id":"ga.erl.mineraloccurrenceview.924757","source":"ozmin","title":"Wallace North","detail":"Copper, Gold","first_seen":"2026-08-26","url":"https://services.ga.gov.au/gis/earthresource/wfs?service=WFS&version=2.0.0&request=GetFeature&typeNames=erl:MineralOccurrenceView&featureID=ga.erl.mineraloccurrenceview.924757&outputFormat=application/json"}},{"type":"Feature","geometry":{"type":"Point","coordinates":[140.2689,-20.97]},"properties":{"id":"ga.erl.mineraloccurrenceview.924902","source":"ozmin","title":"Duck Creek Project","detail":"Copper, (Gold, Cobalt, Sulphur)","first_seen":"2026-08-17","url":"https://services.ga.gov.au/gis/earthresource/wfs?service=WFS&version=2.0.0&request=GetFeature&typeNames=erl:MineralOccurrenceView&featureID=ga.erl.mineraloccurrenceview.924902&outputFormat=application/json"}},{"type":"Feature","geometry":{"type":"Point","coordinates":[140.2689,-20.97]},"properties":{"id":"ga.erl.mineraloccurrenceview.924903","source":"ozmin","title":"Meteor","detail":"Copper, Gold, Cobalt, (Silver)","first_seen":"2026-08-26","url":"https://services.ga.gov.au/gis/earthresource/wfs?service=WFS&version=2.0.0&request=GetFeature&typeNames=erl:MineralOccurrenceView&featureID=ga.erl.mineraloccurrenceview.924903&outputFormat=application/json"}},{"type":"Feature","geometry":{"type":"Point","coordinates":[140.2689,-20.97]},"properties":{"id":"ga.erl.mineraloccurrenceview.924906","source":"ozmin","title":"Duck Creek Total","detail":"Copper, Gold, Cobalt, (Silver)","first_seen":"2026-08-26","url":"https://services.ga.gov.au/gis/earthresource/wfs?service=WFS&version=2.0.0&request=GetFeature&typeNames=erl:MineralOccurrenceView&featureID=ga.erl.mineraloccurrenceview.924906&outputFormat=application/json"}},{"type":"Feature","geometry":{"type":"Point","coordinates":[114.6858,-27.8339]},"properties":{"id":"ga.erl.mineraloccurrenceview.927382","source":"ozmin","title":"Surprise","detail":"Gold","first_seen":"2026-09-01","url":"https://services.ga.gov.au/gis/earthresource/wfs?service=WFS&version=2.0.0&request=GetFeature&typeNames=erl:MineralOccurrenceView&featureID=ga.erl.mineraloccurrenceview.927382&outputFormat=application/json"}},{"type":"Feature","geometry":{"type":"Point","coordinates":[137.249,-30.9765]},"properties":{"id":"ga.erl.mineraloccurrenceview.927397","source":"ozmin","title":"Oak Dam","detail":"Copper, Gold","first_seen":"2026-09-01","url":"https://services.ga.gov.au/gis/earthresource/wfs?service=WFS&version=2.0.0&request=GetFeature&typeNames=erl:MineralOccurrenceView&featureID=ga.erl.mineraloccurrenceview.927397&outputFormat=application/json"}},{"type":"Feature","geometry":{"type":"Point","coordinates":[137.249,-30.9765]},"properties":{"id":"ga.erl.mineraloccurrenceview.927398","source":"ozmin","title":"Oak Dam","detail":"Copper, Gold","first_seen":"2026-09-01","url":"https://services.ga.gov.au/gis/earthresource/wfs?service=WFS&version=2.0.0&request=GetFeature&typeNames=erl:MineralOccurrenceView&featureID=ga.erl.mineraloccurrenceview.927398&outputFormat=application/json"}},{"type":"Feature","geometry":{"type":"Point","coordinates":[120.4655,-29.0976]},"properties":{"id":"ga.erl.mineraloccurrenceview.927405","source":"ozmin","title":"Baldock","detail":"Gold","first_seen":"2026-08-26","url":"https://services.ga.gov.au/gis/earthresource/wfs?service=WFS&version=2.0.0&request=GetFeature&typeNames=erl:MineralOccurrenceView&featureID=ga.erl.mineraloccurrenceview.927405&outputFormat=application/json"}},{"type":"Feature","geometry":{"type":"Point","coordinates":[121.4559,-27.4378]},"properties":{"id":"ga.erl.mineraloccurrenceview.927421","source":"ozmin","title":"Dingo Range","detail":"Gold","first_seen":"2026-08-26","url":"https://services.ga.gov.au/gis/earthresource/wfs?service=WFS&version=2.0.0&request=GetFeature&typeNames=erl:MineralOccurrenceView&featureID=ga.erl.mineraloccurrenceview.927421&outputFormat=application/json"}},{"type":"Feature","geometry":{"type":"Point","coordinates":[121.4559,-27.4378]},"properties":{"id":"ga.erl.mineraloccurrenceview.927422","source":"ozmin","title":"Dingo Range Gold Deposits","detail":"Gold","first_seen":"2026-08-26","url":"https://services.ga.gov.au/gis/earthresource/wfs?service=WFS&version=2.0.0&request=GetFeature&typeNames=erl:MineralOccurrenceView&featureID=ga.erl.mineraloccurrenceview.927422&outputFormat=application/json"}},{"type":"Feature","geometry":{"type":"Point","coordinates":[121.4559,-27.4378]},"properties":{"id":"ga.erl.mineraloccurrenceview.927423","source":"ozmin","title":"Open Pit Stockpiles","detail":"Gold","first_seen":"2026-08-26","url":"https://services.ga.gov.au/gis/earthresource/wfs?service=WFS&version=2.0.0&request=GetFeature&typeNames=erl:MineralOccurrenceView&featureID=ga.erl.mineraloccurrenceview.927423&outputFormat=application/json"}},{"type":"Feature","geometry":{"type":"Point","coordinates":[121.1341,-28.307]},"properties":{"id":"ga.erl.mineraloccurrenceview.927461","source":"ozmin","title":"Central GoldFields","detail":"Gold","first_seen":"2026-09-01","url":"https://services.ga.gov.au/gis/earthresource/wfs?service=WFS&version=2.0.0&request=GetFeature&typeNames=erl:MineralOccurrenceView&featureID=ga.erl.mineraloccurrenceview.927461&outputFormat=application/json"}},{"type":"Feature","geometry":{"type":"Point","coordinates":[121.1341,-28.307]},"properties":{"id":"ga.erl.mineraloccurrenceview.927462","source":"ozmin","title":"Craigs Rest","detail":"Gold","first_seen":"2026-09-01","url":"https://services.ga.gov.au/gis/earthresource/wfs?service=WFS&version=2.0.0&request=GetFeature&typeNames=erl:MineralOccurrenceView&featureID=ga.erl.mineraloccurrenceview.927462&outputFormat=application/json"}},{"type":"Feature","geometry":{"type":"Point","coordinates":[121.1341,-28.307]},"properties":{"id":"ga.erl.mineraloccurrenceview.927463","source":"ozmin","title":"Craigs Rest","detail":"Gold","first_seen":"2026-09-01","url":"https://services.ga.gov.au/gis/earthresource/wfs?service=WFS&version=2.0.0&request=GetFeature&typeNames=erl:MineralOccurrenceView&featureID=ga.erl.mineraloccurrenceview.927463&outputFormat=application/json"}},{"type":"Feature","geometry":{"type":"Point","coordinates":[121.2739,-28.8102]},"properties":{"id":"ga.erl.mineraloccurrenceview.927464","source":"ozmin","title":"Victor Bore","detail":"Gold","first_seen":"2026-09-01","url":"https://services.ga.gov.au/gis/earthresource/wfs?service=WFS&version=2.0.0&request=GetFeature&typeNames=erl:MineralOccurrenceView&featureID=ga.erl.mineraloccurrenceview.927464&outputFormat=application/json"}},{"type":"Feature","geometry":{"type":"Point","coordinates":[121.2739,-28.8102]},"properties":{"id":"ga.erl.mineraloccurrenceview.927465","source":"ozmin","title":"Victor Bore","detail":"Gold","first_seen":"2026-09-01","url":"https://services.ga.gov.au/gis/earthresource/wfs?service=WFS&version=2.0.0&request=GetFeature&typeNames=erl:MineralOccurrenceView&featureID=ga.erl.mineraloccurrenceview.927465&outputFormat=application/json"}},{"type":"Feature","geometry":{"type":"Point","coordinates":[121.9243,-28.9896]},"properties":{"id":"ga.erl.mineraloccurrenceview.927483","source":"ozmin","title":"Queen Alexandra","detail":"Gold","first_seen":"2026-08-31","url":"https://services.ga.gov.au/gis/earthresource/wfs?service=WFS&version=2.0.0&request=GetFeature&typeNames=erl:MineralOccurrenceView&featureID=ga.erl.mineraloccurrenceview.927483&outputFormat=application/json"}},{"type":"Feature","geometry":{"type":"Point","coordinates":[121.9243,-28.9896]},"properties":{"id":"ga.erl.mineraloccurrenceview.927484","source":"ozmin","title":"Queen Alexandra","detail":"Gold","first_seen":"2026-08-31","url":"https://services.ga.gov.au/gis/earthresource/wfs?service=WFS&version=2.0.0&request=GetFeature&typeNames=erl:MineralOccurrenceView&featureID=ga.erl.mineraloccurrenceview.927484&outputFormat=application/json"}},{"type":"Feature","geometry":{"type":"Point","coordinates":[121.9759,-31.5888]},"properties":{"id":"ga.erl.mineraloccurrenceview.927488","source":"ozmin","title":"Paris Gold Project","detail":"Gold","first_seen":"2026-08-13","url":"https://services.ga.gov.au/gis/earthresource/wfs?service=WFS&version=2.0.0&request=GetFeature&typeNames=erl:MineralOccurrenceView&featureID=ga.erl.mineraloccurrenceview.927488&outputFormat=application/json"}},{"type":"Feature","geometry":{"type":"Point","coordinates":[121.9759,-31.5888]},"properties":{"id":"ga.erl.mineraloccurrenceview.927489","source":"ozmin","title":"Paris","detail":"Gold","first_seen":"2026-08-13","url":"https://services.ga.gov.au/gis/earthresource/wfs?service=WFS&version=2.0.0&request=GetFeature&typeNames=erl:MineralOccurrenceView&featureID=ga.erl.mineraloccurrenceview.927489&outputFormat=application/json"}},{"type":"Feature","geometry":{"type":"Point","coordinates":[121.9693,-31.5788]},"properties":{"id":"ga.erl.mineraloccurrenceview.927490","source":"ozmin","title":"HHH","detail":"Gold","first_seen":"2026-08-13","url":"https://services.ga.gov.au/gis/earthresource/wfs?service=WFS&version=2.0.0&request=GetFeature&typeNames=erl:MineralOccurrenceView&featureID=ga.erl.mineraloccurrenceview.927490&outputFormat=application/json"}},{"type":"Feature","geometry":{"type":"Point","coordinates":[121.9665,-31.5707]},"properties":{"id":"ga.erl.mineraloccurrenceview.927491","source":"ozmin","title":"Observation","detail":"Gold","first_seen":"2026-08-13","url":"https://services.ga.gov.au/gis/earthresource/wfs?service=WFS&version=2.0.0&request=GetFeature&typeNames=erl:MineralOccurrenceView&featureID=ga.erl.mineraloccurrenceview.927491&outputFormat=application/json"}},{"type":"Feature","geometry":{"type":"Point","coordinates":[149.026,-32.4252]},"properties":{"id":"ga.erl.mineraloccurrenceview.927500","source":"ozmin","title":"Boda","detail":"Gold, Copper","first_seen":"2026-08-31","url":"https://services.ga.gov.au/gis/earthresource/wfs?service=WFS&version=2.0.0&request=GetFeature&typeNames=erl:MineralOccurrenceView&featureID=ga.erl.mineraloccurrenceview.927500&outputFormat=application/json"}},{"type":"Feature","geometry":{"type":"Point","coordinates":[149.015,-32.4131]},"properties":{"id":"ga.erl.mineraloccurrenceview.927501","source":"ozmin","title":"Kaiser","detail":"Gold, Copper","first_seen":"2026-08-31","url":"https://services.ga.gov.au/gis/earthresource/wfs?service=WFS&version=2.0.0&request=GetFeature&typeNames=erl:MineralOccurrenceView&featureID=ga.erl.mineraloccurrenceview.927501&outputFormat=application/json"}},{"type":"Feature","geometry":{"type":"Point","coordinates":[121.582,-28.8799]},"properties":{"id":"ga.erl.mineraloccurrenceview.927513","source":"ozmin","title":"Leonora Gold Project","detail":"Gold","first_seen":"2026-08-31","url":"https://services.ga.gov.au/gis/earthresource/wfs?service=WFS&version=2.0.0&request=GetFeature&typeNames=erl:MineralOccurrenceView&featureID=ga.erl.mineraloccurrenceview.927513&outputFormat=application/json"}},{"type":"Feature","geometry":{"type":"Point","coordinates":[120.101,-21.8706]},"properties":{"id":"ga.erl.mineraloccurrenceview.927812","source":"ozmin","title":"Beaton's Creek Open Pit","detail":"Gold","first_seen":"2026-09-01","url":"https://services.ga.gov.au/gis/earthresource/wfs?service=WFS&version=2.0.0&request=GetFeature&typeNames=erl:MineralOccurrenceView&featureID=ga.erl.mineraloccurrenceview.927812&outputFormat=application/json"}},{"type":"Feature","geometry":{"type":"Point","coordinates":[120.101,-21.8706]},"properties":{"id":"ga.erl.mineraloccurrenceview.927813","source":"ozmin","title":"Beaton's Creek Underground","detail":"Gold","first_seen":"2026-09-01","url":"https://services.ga.gov.au/gis/earthresource/wfs?service=WFS&version=2.0.0&request=GetFeature&typeNames=erl:MineralOccurrenceView&featureID=ga.erl.mineraloccurrenceview.927813&outputFormat=application/json"}},{"type":"Feature","geometry":{"type":"Point","coordinates":[119.4538,-28.1448]},"properties":{"id":"ga.erl.mineraloccurrenceview.927935","source":"ozmin","title":"Vanguard Camp","detail":"Gold","first_seen":"2026-08-14","url":"https://services.ga.gov.au/gis/earthresource/wfs?service=WFS&version=2.0.0&request=GetFeature&typeNames=erl:MineralOccurrenceView&featureID=ga.erl.mineraloccurrenceview.927935&outputFormat=application/json"}},{"type":"Feature","geometry":{"type":"Point","coordinates":[139.779,-21.28]},"properties":{"id":"ga.erl.mineraloccurrenceview.927940","source":"ozmin","title":"Nil Desperandum OP","detail":"Copper, Gold","first_seen":"2026-08-25","url":"https://services.ga.gov.au/gis/earthresource/wfs?service=WFS&version=2.0.0&request=GetFeature&typeNames=erl:MineralOccurrenceView&featureID=ga.erl.mineraloccurrenceview.927940&outputFormat=application/json"}},{"type":"Feature","geometry":{"type":"Point","coordinates":[139.779,-21.28]},"properties":{"id":"ga.erl.mineraloccurrenceview.927941","source":"ozmin","title":"Nil Desperandum UG","detail":"Copper, Gold","first_seen":"2026-08-25","url":"https://services.ga.gov.au/gis/earthresource/wfs?service=WFS&version=2.0.0&request=GetFeature&typeNames=erl:MineralOccurrenceView&featureID=ga.erl.mineraloccurrenceview.927941&outputFormat=application/json"}},{"type":"Feature","geometry":{"type":"Point","coordinates":[139.7855,-21.2512]},"properties":{"id":"ga.erl.mineraloccurrenceview.927942","source":"ozmin","title":"Lady Fanny","detail":"Copper, Gold","first_seen":"2026-08-25","url":"https://services.ga.gov.au/gis/earthresource/wfs?service=WFS&version=2.0.0&request=GetFeature&typeNames=erl:MineralOccurrenceView&featureID=ga.erl.mineraloccurrenceview.927942&outputFormat=application/json"}},{"type":"Feature","geometry":{"type":"Point","coordinates":[139.9031,-21.478]},"properties":{"id":"ga.erl.mineraloccurrenceview.927948","source":"ozmin","title":"Trekelano 1 OP","detail":"Copper, Gold","first_seen":"2026-08-26","url":"https://services.ga.gov.au/gis/earthresource/wfs?service=WFS&version=2.0.0&request=GetFeature&typeNames=erl:MineralOccurrenceView&featureID=ga.erl.mineraloccurrenceview.927948&outputFormat=application/json"}},{"type":"Feature","geometry":{"type":"Point","coordinates":[139.9031,-21.478]},"properties":{"id":"ga.erl.mineraloccurrenceview.927949","source":"ozmin","title":"Trekelano 1 UG","detail":"Copper, Gold","first_seen":"2026-08-26","url":"https://services.ga.gov.au/gis/earthresource/wfs?service=WFS&version=2.0.0&request=GetFeature&typeNames=erl:MineralOccurrenceView&featureID=ga.erl.mineraloccurrenceview.927949&outputFormat=application/json"}},{"type":"Feature","geometry":{"type":"Point","coordinates":[139.9031,-21.478]},"properties":{"id":"ga.erl.mineraloccurrenceview.927950","source":"ozmin","title":"Trekelano 2 OP","detail":"Copper, Gold","first_seen":"2026-08-26","url":"https://services.ga.gov.au/gis/earthresource/wfs?service=WFS&version=2.0.0&request=GetFeature&typeNames=erl:MineralOccurrenceView&featureID=ga.erl.mineraloccurrenceview.927950&outputFormat=application/json"}},{"type":"Feature","geometry":{"type":"Point","coordinates":[139.9032,-21.4793]},"properties":{"id":"ga.erl.mineraloccurrenceview.927951","source":"ozmin","title":"Inheritance OP","detail":"Copper, Gold","first_seen":"2026-08-25","url":"https://services.ga.gov.au/gis/earthresource/wfs?service=WFS&version=2.0.0&request=GetFeature&typeNames=erl:MineralOccurrenceView&featureID=ga.erl.mineraloccurrenceview.927951&outputFormat=application/json"}},{"type":"Feature","geometry":{"type":"Point","coordinates":[139.9043,-21.4778]},"properties":{"id":"ga.erl.mineraloccurrenceview.927952","source":"ozmin","title":"Inheritance UG","detail":"Copper, Gold","first_seen":"2026-08-26","url":"https://services.ga.gov.au/gis/earthresource/wfs?service=WFS&version=2.0.0&request=GetFeature&typeNames=erl:MineralOccurrenceView&featureID=ga.erl.mineraloccurrenceview.927952&outputFormat=application/json"}},{"type":"Feature","geometry":{"type":"Point","coordinates":[140.9281,-21.0637]},"properties":{"id":"ga.erl.mineraloccurrenceview.927958","source":"ozmin","title":"Maronan copper-gold","detail":"Copper, Gold","first_seen":"2026-08-31","url":"https://services.ga.gov.au/gis/earthresource/wfs?service=WFS&version=2.0.0&request=GetFeature&typeNames=erl:MineralOccurrenceView&featureID=ga.erl.mineraloccurrenceview.927958&outputFormat=application/json"}},{"type":"Feature","geometry":{"type":"Point","coordinates":[117.1387,-27.5047]},"properties":{"id":"ga.erl.mineraloccurrenceview.928013","source":"ozmin","title":"Cranes","detail":"Gold","first_seen":"2026-08-31","url":"https://services.ga.gov.au/gis/earthresource/wfs?service=WFS&version=2.0.0&request=GetFeature&typeNames=erl:MineralOccurrenceView&featureID=ga.erl.mineraloccurrenceview.928013&outputFormat=application/json"}},{"type":"Feature","geometry":{"type":"Point","coordinates":[117.1303,-27.5231]},"properties":{"id":"ga.erl.mineraloccurrenceview.928023","source":"ozmin","title":"Duke","detail":"Gold","first_seen":"2026-08-31","url":"https://services.ga.gov.au/gis/earthresource/wfs?service=WFS&version=2.0.0&request=GetFeature&typeNames=erl:MineralOccurrenceView&featureID=ga.erl.mineraloccurrenceview.928023&outputFormat=application/json"}},{"type":"Feature","geometry":{"type":"Point","coordinates":[117.1277,-27.5279]},"properties":{"id":"ga.erl.mineraloccurrenceview.928024","source":"ozmin","title":"Princess","detail":"Gold","first_seen":"2026-08-31","url":"https://services.ga.gov.au/gis/earthresource/wfs?service=WFS&version=2.0.0&request=GetFeature&typeNames=erl:MineralOccurrenceView&featureID=ga.erl.mineraloccurrenceview.928024&outputFormat=application/json"}},{"type":"Feature","geometry":{"type":"Point","coordinates":[117.6952,-29.2684]},"properties":{"id":"ga.erl.mineraloccurrenceview.929524","source":"ozmin","title":"Pansy Pit","detail":"Gold","first_seen":"2026-08-31","url":"https://services.ga.gov.au/gis/earthresource/wfs?service=WFS&version=2.0.0&request=GetFeature&typeNames=erl:MineralOccurrenceView&featureID=ga.erl.mineraloccurrenceview.929524&outputFormat=application/json"}},{"type":"Feature","geometry":{"type":"Point","coordinates":[144.28,-36.76]},"properties":{"id":"https://www.youtube.com/watch?v=2vzISGbMNZI","source":"youtube","title":"I Missed This Gold Reef the First Time — Vo-Gus Prospecting","detail":"Central VIC","first_seen":"2026-09-04","url":"https://www.youtube.com/watch?v=2vzISGbMNZI","approx":true}},{"type":"Feature","geometry":{"type":"Point","coordinates":[144.22,-37.06]},"properties":{"id":"https://www.youtube.com/shorts/oBdzG0yDRF4","source":"youtube","title":"Gold Nugget Stuck In Bedrock Crack — PioneerPauly","detail":"Central VIC","first_seen":"2026-08-31","url":"https://www.youtube.com/shorts/oBdzG0yDRF4","approx":true}},{"type":"Feature","geometry":{"type":"Point","coordinates":[144.28,-36.76]},"properties":{"id":"https://www.youtube.com/watch?v=F19ylHaS2mA","source":"youtube","title":"$50 vs $1,000 Gold Prospecting Setup — Is Expensive Gear Worth It? — Vo-Gus Prospecting","detail":"Central VIC","first_seen":"2026-08-26","url":"https://www.youtube.com/watch?v=F19ylHaS2mA","approx":true}},{"type":"Feature","geometry":{"type":"Point","coordinates":[144.28,-36.76]},"properties":{"id":"https://www.youtube.com/watch?v=tTm1eytDZ5g","source":"youtube","title":"Is the $395 Gold Monster 2000 Upgrade Worth It? — Vo-Gus Prospecting","detail":"Central VIC","first_seen":"2026-08-19","url":"https://www.youtube.com/watch?v=tTm1eytDZ5g","approx":true}},{"type":"Feature","geometry":{"type":"Point","coordinates":[144.22,-37.06]},"properties":{"id":"https://www.youtube.com/watch?v=ouCvhXOUclw","source":"youtube","title":"The GOLD RUSH Forgot To Look Under These Boulders.. — PioneerPauly","detail":"Central VIC","first_seen":"2026-08-19","url":"https://www.youtube.com/watch?v=ouCvhXOUclw","approx":true}},{"type":"Feature","geometry":{"type":"Point","coordinates":[144.28,-36.76]},"properties":{"id":"https://www.youtube.com/shorts/OeibGeDIItE","source":"youtube","title":"Gold Monster 2000 with 10\" coil on a live dig, a bullet, pellet and gold nugget found #gold #nugget — Vo-Gus Prospecting","detail":"Central VIC","first_seen":"2026-08-14","url":"https://www.youtube.com/shorts/OeibGeDIItE","approx":true}},{"type":"Feature","geometry":{"type":"Point","coordinates":[144.28,-36.76]},"properties":{"id":"https://www.youtube.com/shorts/_YXQMRXuu4A","source":"youtube","title":"A secret I probably shouldn't release #metaldetecting #gold #prospecting #mine — Vo-Gus Prospecting","detail":"Central VIC","first_seen":"2026-08-13","url":"https://www.youtube.com/shorts/_YXQMRXuu4A","approx":true}},{"type":"Feature","geometry":{"type":"Point","coordinates":[144.28,-36.76]},"properties":{"id":"https://www.youtube.com/watch?v=S5ypWskCNmY","source":"youtube","title":"No Machines, No Shortcuts — Mining Gold Like the Old-Timers — Vo-Gus Prospecting","detail":"Central VIC","first_seen":"2026-08-12","url":"https://www.youtube.com/watch?v=S5ypWskCNmY","approx":true}},{"type":"Feature","geometry":{"type":"Point","coordinates":[146.8,-41.5]},"properties":{"id":"https://www.youtube.com/watch?v=rkNEm7ZXGiM","source":"youtube","title":"The Largest Nuggets of my Career!! (Part 2) — Tassie Boys Prospecting","detail":"Tasmania","first_seen":"2026-08-13","url":"https://www.youtube.com/watch?v=rkNEm7ZXGiM","approx":true}},{"type":"Feature","geometry":{"type":"Point","coordinates":[121.47,-30.75]},"properties":{"id":"https://www.youtube.com/watch?v=hX9B-hUvFSo","source":"youtube","title":"GPZ 8000 vs. Worked-Out Ground: Does it actually find deep gold? — Goldfields Goose","detail":"WA Goldfields","first_seen":"2026-08-11","url":"https://www.youtube.com/watch?v=hX9B-hUvFSo","approx":true}},{"type":"Feature","geometry":{"type":"Point","coordinates":[144.28,-36.76]},"properties":{"id":"https://www.youtube.com/watch?v=uty7XDfwPao","source":"youtube","title":"Why Were These Old Gold Mines Built Here? | Hard Rock Explained — Vo-Gus Prospecting","detail":"Central VIC","first_seen":"2026-08-06","url":"https://www.youtube.com/watch?v=uty7XDfwPao","approx":true}},{"type":"Feature","geometry":{"type":"Point","coordinates":[144.28,-36.76]},"properties":{"id":"https://www.youtube.com/shorts/kDZjmNXw2mY","source":"youtube","title":"Look out for this if you want to find gold #mining #geology #howto #gold — Vo-Gus Prospecting","detail":"Central VIC","first_seen":"2026-08-06","url":"https://www.youtube.com/shorts/kDZjmNXw2mY","approx":true}},{"type":"Feature","geometry":{"type":"Point","coordinates":[121.47,-30.75]},"properties":{"id":"https://www.youtube.com/watch?v=tO7QvDtKOZc","source":"youtube","title":"Z13 is Mint | GPZ 8000 | WA GOLDFIELDS — Goldfields Goose","detail":"Wa Goldfields","first_seen":"2026-08-06","url":"https://www.youtube.com/watch?v=tO7QvDtKOZc","approx":true}},{"type":"Feature","geometry":{"type":"Point","coordinates":[144.22,-37.06]},"properties":{"id":"https://www.youtube.com/watch?v=gS01m1u6fKY","source":"youtube","title":"My Best Day GOLD Sniping This Year! — PioneerPauly","detail":"Central VIC","first_seen":"2026-08-06","url":"https://www.youtube.com/watch?v=gS01m1u6fKY","approx":true}},{"type":"Feature","geometry":{"type":"Point","coordinates":[144.28,-36.76]},"properties":{"id":"https://www.youtube.com/watch?v=c2r1pqqr5DU","source":"youtube","title":"How to Find Gold Hidden Inside Rock | Gold Ore in Australia — Vo-Gus Prospecting","detail":"Central VIC","first_seen":"2026-08-06","url":"https://www.youtube.com/watch?v=c2r1pqqr5DU","approx":true}},{"type":"Feature","geometry":{"type":"Point","coordinates":[146.8,-41.5]},"properties":{"id":"https://www.youtube.com/watch?v=g-P7HOCjHhs","source":"youtube","title":"The Largest Nuggets of my career!! (Part 1) — Tassie Boys Prospecting","detail":"Tasmania","first_seen":"2026-08-23","url":"https://www.youtube.com/watch?v=g-P7HOCjHhs","approx":true}},{"type":"Feature","geometry":{"type":"Point","coordinates":[144.28,-36.76]},"properties":{"id":"https://www.youtube.com/watch?v=AidFd5XYGN0","source":"youtube","title":"IRL Metal Detecting for Gold | Gold Monster 2000 on Specimens — Vo-Gus Prospecting","detail":"Central VIC","first_seen":"2026-08-06","url":"https://www.youtube.com/watch?v=AidFd5XYGN0","approx":true}},{"type":"Feature","geometry":{"type":"Point","coordinates":[143.8,-36.7]},"properties":{"id":"https://www.youtube.com/watch?v=47_G43_mqbQ","source":"youtube","title":"We Found a VIRGIN Gold Nugget Patch! 🥇 Record Nugget with the GPZ 7000! — Australian Gold Detecting","detail":"Golden Triangle VIC","first_seen":"2026-08-06","url":"https://www.youtube.com/watch?v=47_G43_mqbQ","approx":true}},{"type":"Feature","geometry":{"type":"Point","coordinates":[121.47,-30.75]},"properties":{"id":"https://www.youtube.com/watch?v=e63nzOMoW9M","source":"youtube","title":"I Finally Upgraded My Off Grid Prospecting Setup — Goldfields Goose","detail":"WA Goldfields","first_seen":"2026-08-06","url":"https://www.youtube.com/watch?v=e63nzOMoW9M","approx":true}},{"type":"Feature","geometry":{"type":"Point","coordinates":[144.28,-36.76]},"properties":{"id":"https://www.youtube.com/watch?v=N01taLIsQqI","source":"youtube","title":"How Much Gold Is In This Pile of Dirt? — Vo-Gus Prospecting","detail":"Central VIC","first_seen":"2026-08-06","url":"https://www.youtube.com/watch?v=N01taLIsQqI","approx":true}},{"type":"Feature","geometry":{"type":"Point","coordinates":[144.22,-37.06]},"properties":{"id":"https://www.youtube.com/shorts/4E6OKkLQblY","source":"youtube","title":"Ancient Arrowhead Found on Beach — PioneerPauly","detail":"Central VIC","first_seen":"2026-08-06","url":"https://www.youtube.com/shorts/4E6OKkLQblY","approx":true}},{"type":"Feature","geometry":{"type":"Point","coordinates":[144.28,-36.76]},"properties":{"id":"https://www.youtube.com/watch?v=mvSX4yTOIqE","source":"youtube","title":"Hunting Australia's Richest Creek | $1,000 in Gold Recovered — Vo-Gus Prospecting","detail":"Central VIC","first_seen":"2026-08-06","url":"https://www.youtube.com/watch?v=mvSX4yTOIqE","approx":true}},{"type":"Feature","geometry":{"type":"Point","coordinates":[146.8,-41.5]},"properties":{"id":"https://www.youtube.com/watch?v=slDrNXorJo0","source":"youtube","title":"A Giant River Crevice Gives Up A Fortune Of Gold!! — Tassie Boys Prospecting","detail":"Tasmania","first_seen":"2026-08-06","url":"https://www.youtube.com/watch?v=slDrNXorJo0","approx":true}},{"type":"Feature","geometry":{"type":"Point","coordinates":[121.47,-30.75]},"properties":{"id":"https://www.youtube.com/watch?v=e-efHldRk0E","source":"youtube","title":"How Much Small Gold Does a Big Coil Leave Behind? — Goldfields Goose","detail":"WA Goldfields","first_seen":"2026-08-06","url":"https://www.youtube.com/watch?v=e-efHldRk0E","approx":true}},{"type":"Feature","geometry":{"type":"Point","coordinates":[143.85,-37.56]},"properties":{"id":"https://www.youtube.com/watch?v=j9RgCaufXt4","source":"youtube","title":"We just found a river full of gold but had to leave it all behind... — Prospector Nic","detail":"Ballarat VIC","first_seen":"2026-08-06","url":"https://www.youtube.com/watch?v=j9RgCaufXt4","approx":true}},{"type":"Feature","geometry":{"type":"Point","coordinates":[144.28,-36.76]},"properties":{"id":"https://www.youtube.com/watch?v=8jA2iLkVE-s","source":"youtube","title":"The Biggest Lie in Gold Prospecting — Vo-Gus Prospecting","detail":"Central VIC","first_seen":"2026-08-06","url":"https://www.youtube.com/watch?v=8jA2iLkVE-s","approx":true}},{"type":"Feature","geometry":{"type":"Point","coordinates":[144.28,-36.76]},"properties":{"id":"https://www.youtube.com/watch?v=nvm8i76BSvA","source":"youtube","title":"Massive Gold Recovery from Victoria's Forgotten Goldfields — Vo-Gus Prospecting","detail":"Central VIC","first_seen":"2026-08-06","url":"https://www.youtube.com/watch?v=nvm8i76BSvA","approx":true}},{"type":"Feature","geometry":{"type":"Point","coordinates":[144.22,-37.06]},"properties":{"id":"https://www.youtube.com/watch?v=1_Mfmd36u6Y","source":"youtube","title":"The MOST GOLD We've Ever Uncovered Highbanking — PioneerPauly","detail":"Central VIC","first_seen":"2026-08-06","url":"https://www.youtube.com/watch?v=1_Mfmd36u6Y","approx":true}},{"type":"Feature","geometry":{"type":"Point","coordinates":[121.47,-30.75]},"properties":{"id":"https://www.youtube.com/watch?v=i2i6yORwtwA","source":"youtube","title":"GPZ 8000 & GPX 6000: The Ultimate Gold Hunting Combo? — Goldfields Goose","detail":"WA Goldfields","first_seen":"2026-08-06","url":"https://www.youtube.com/watch?v=i2i6yORwtwA","approx":true}},{"type":"Feature","geometry":{"type":"Point","coordinates":[143.85,-37.56]},"properties":{"id":"https://www.youtube.com/watch?v=g3WXIOBKEgE","source":"youtube","title":"HOW MUCH GOLD Did The MINERS MISS In This GOLD RICH RIVER? — Prospector Nic","detail":"Ballarat VIC","first_seen":"2026-08-06","url":"https://www.youtube.com/watch?v=g3WXIOBKEgE","approx":true}},{"type":"Feature","geometry":{"type":"Point","coordinates":[143.8,-36.7]},"properties":{"id":"https://www.youtube.com/watch?v=azc_W-mufnc","source":"youtube","title":"Gold Nuggets & A Mysterious Bone Yard! | Detecting with the GPZ 7000 — Australian Gold Detecting","detail":"Golden Triangle VIC","first_seen":"2026-08-06","url":"https://www.youtube.com/watch?v=azc_W-mufnc","approx":true}}]}